Station Name,Street Address,City,ZIP,Station Phone,Groups With Access Code,Latitude,Longitude,ID
City of Raleigh - Municipal Building,285 W Hargett St,Raleigh,27601,919-996-3030,Public,35.778416,-78.64347,39016
City of Raleigh - Downtown,215 W Cabarrus St,Raleigh,27601,919-996-3030,Public,35.77435,-78.642287,39017
Modern Nissan - Concord,967 Concord Pkwy S,Concord,28027,704-788-2110,Public - Call ahead,35.392063,-80.622777,40066
Fred Anderson Nissan,4559 Raeford Rd,Fayetteville,28304,910-758-2338,Public - Call ahead,35.042419,-78.956747,40067
Vann Yorks High Point Nissan,1810 S Main St,High Point,27260,336-884-4122,Public - Call ahead,35.937981,-79.996012,40068
Nissan of Lumberton,1949 Roberts Ave,Lumberton,28358,910-739-8371,Public - Call ahead,34.634487,-78.997134,40069
Marriott Hotel - Underground Deck,1 E Lenoir St,Raleigh,27601,919-833-7522,Public,35.772881,-78.638502,40745
City of Raleigh - Performing Arts Center Deck,128 W South St,Raleigh,27601,919-996-3030,Public,35.772619,-78.641492,40747
City of Raleigh - Wilmington Station Deck,117 S Wilmington St,Raleigh,27601,919-996-3030,Public,35.77937,-78.638203,40751
Neal's Garage,1907 W Markham Ave,Durham,27705,919-286-1167,Public,36.009999,-78.921405,40854
Wilkerson Nature Preserve Park,11408 Raven Ridge Rd,Raleigh,27614,919-996-3030,Public,35.92353,-78.599883,41553
Raleigh Municipal Building Deck,201 W Morgan St,Raleigh,27601,919-996-3030,Public,35.779082,-78.641779,42396
City of Raleigh - Walnut Creek Wetland Center,950 Peterson St,Raleigh,27610,919-996-3030,Public,35.760503,-78.625345,42398
City of Raleigh - Optimist Park and Community Center,5910 Whittier Dr,Raleigh,27609,919-996-3030,Public,35.862603,-78.643641,42399
City of Raleigh - Jaycee Park and Community Center,2401 Wade Ave,Raleigh,27607,919-996-3030,Public,35.800443,-78.663445,42400
City of Raleigh - Wilders Grove,630 Beacon Lake Dr,Raleigh,27610,919-996-3030,Public,35.788789,-78.573106,42401
City of Raleigh - Transit Center,808 Bus Way,Raleigh,27610,919-996-3030,Private,35.767483,-78.563464,42402
City of Raleigh - Transit Center,808 Bus Way,Raleigh,27610,919-996-3030,Public,35.767483,-78.563464,42403
The Green Parking Garage,435 S Tryon St,Charlotte,28202,604-338-3232,Public,35.223874,-80.846273,42927
North Carolina State University - McKimmon Center and Solar House,1201 Gorman Ave,Raleigh,27606,919-515-0314,Public,35.78214,-78.6864,43324
Taylor Automotive,1007 Hawkins Ave,Sanford,27330,919-774-4037,Public,35.49416,-79.180591,43363
Carolina Nissan,1329 Huffman Mill Rd,Burlington,27215,336-584-0201,Public - Call ahead,36.063557,-79.503697,43876
Carolina Nissan,1329 Huffman Mill Rd,Burlington,27215,336-584-0201,Private,36.063557,-79.503697,43877
North Carolina State University - Joyner Visitor Center,1210 Varsity Dr,Raleigh,27606,919-513-1200,Public,35.784037,-78.684667,43880
Northern Wake Tech Community College,6600 Louisburg Rd,Raleigh,27616,919-532-5502,Public,35.867552,-78.543695,44301
Whole Foods Market,8710 Six Forks Rd,Raleigh,27615,919-354-0350,Public - Credit card at all times,35.898899,-78.650239,44302
Asheville Chamber of Commerce & Visitors Center,36 Montford Ave,Asheville,28801,828-258-6101  828-258-6129,Public,35.597527,-82.560582,44376
College Street Parking Deck,164 College St,Asheville,28801,828-259-5792,Public - Call ahead,35.597377,-82.549206,44377
Ingles Markets - Skyland Plaza,1865 Hendersonville Rd,Asheville,28803,828-274-0804,Public,35.499836,-82.522586,44378
FAYETTEVILLE NC FRANKLIN 2,208 Franklin St,Fayetteville,28301,888-758-4389,Public,35.052556,-78.880206,44944
"CHARLOTTE, NC CMGC STATION 4",232 S Davidson St,Charlotte,28202,888-758-4389,Public,35.221981,-80.839984,45854
"CHARLOTTE, NC MALLARD CK 02",1712 J N Pease Pl,Charlotte,28262,888-758-4389,Public,35.323848,-80.773027,45858
Michael Jordan Nissan,3930 Chapel Hill Blvd,Durham,27707,919-489-3800,Public - Call ahead,35.97051751,-78.95684759,46407
Friendship Nissan,156 Oak St Extension,Forest City,28043,888-667-0284,Public - Call ahead,35.334675,-81.892822,46996
Friendship Nissan,156 Oak St Extension,Forest City,28043,888-667-0284,Private,35.334675,-81.892822,46997
Gastonia Nissan,2755 E Franklin Blvd,Gastonia,28054,704-867-0000,Public - Call ahead,35.261109,-81.139708,46998
Gastonia Nissan,2755 E Franklin Blvd,Gastonia,28054,704-867-0000,Private,35.261109,-81.139708,46999
Deacon Jones Nissan,1220 W Grantham St,Goldsboro,27530,919-734-2411,Public - Call ahead,35.400146,-78.014743,47000
Crown Nissan,3900 W Wendover Ave,Greensboro,27407,,Public - Call ahead,36.060613,-79.876505,47003
Crown Nissan,3900 W Wendover Ave,Greensboro,27407,,Private,36.060613,-79.876505,47004
Greenville Nissan,991 Greenville Blvd SW,Greenville,27834,252-756-1738,Public - Call ahead,35.571982,-77.408327,47005
Greenville Nissan,991 Greenville Blvd SW,Greenville,27834,252-756-1738,Private,35.571982,-77.408327,47006
City of Hendersonville - Dogwood Parking Lot,411 N Church St,Hendersonville,28792,828-697-3000,Public,35.316931,-82.461565,47007
Hunter Nissan,1340 Spartanburg Hwy,Hendersonville,28792,828-697-2222,Public - Call ahead,35.301937,-82.440374,47008
Hunter Nissan,1340 Spartanburg Hwy,Hendersonville,28792,828-697-2222,Private,35.301937,-82.440374,47009
Modern Nissan - Hickory,840 US Highway 70 SE,Hickory,28602,828-324-5040,Public - Call ahead,35.710136,-81.321182,47010
Modern Nissan - Hickory,840 US Highway 70 SE,Hickory,28602,828-324-5040,Private,35.710136,-81.321182,47011
Vann Yorks High Point Nissan,1810 S Main St,High Point,27260,336-884-4122,Private,35.937981,-79.996012,47012
Don Williamson Nissan,310 Western Blvd,Jacksonville,28546,910-353-7700,Public - Call ahead,34.761337,-77.381386,47013
Don Williamson Nissan,310 Western Blvd,Jacksonville,28546,910-353-7700,Private,34.761337,-77.381386,47014
Montreat College,310 Appalachian Way,Montreat,28757,828-669-8012,Public,35.64569,-82.296916,47017
Eastern Carolina Nissan,3315 Highway 70 E,New Bern,28560,252-636-1000,Public - Call ahead,35.048239,-77.014397,47018
Eastern Carolina Nissan,3315 Highway 70 E,New Bern,28560,252-636-1000,Private,35.048239,-77.014397,47019
Reidsville Nissan,1123 Freeway Dr,Reidsville,27320,336-342-5741,Public - Call ahead,36.323241,-79.686657,47024
Reidsville Nissan,1123 Freeway Dr,Reidsville,27320,336-342-5741,Private,36.323241,-79.686657,47025
Nissan of Roanoke Rapids,407 Premier Blvd,Roanoke Rapids,27870,252-537-1041,Public - Call ahead,36.42331,-77.635287,47026
Griffin Nissan,1780 E Broad Ave,Rockingham,28379,910-997-5516,Public - Call ahead,34.918104,-79.744733,47028
Simmons Nissan,1994 Rockford St,Mt. Airy,27030,336-786-8371,Public - Call ahead,36.480616,-80.616003,47029
Simmons Nissan,1994 Rockford St,Mt. Airy,27030,336-786-8371,Private,36.480616,-80.616003,47030
Griffin Nissan,1780 E Broad Ave,Rockingham,28379,910-997-5516,Private,34.918104,-79.744733,47031
Ben Mynatt Nissan,629 Jake Alexander Blvd S,Salisbury,28147,704-633-7270,Public - Call ahead,35.644549,-80.488272,47032
Ben Mynatt Nissan,629 Jake Alexander Blvd S,Salisbury,28147,704-633-7270,Private,35.644549,-80.488272,47033
Classic Nissan - Sanford,3305 NC Highway 87 S,Sanford,27332,919-775-2351,Public - Call ahead,35.44411,-79.1282,47034
Classic Nissan - Sanford,3305 NC Highway 87 S,Sanford,27332,919-775-2351,Private,35.44411,-79.1282,47035
Pinehurst Nissan,10910 S US Highway 15-501,Southern Pines,28387,910-684-1010,Public - Call ahead,35.161067,-79.421191,47036
Pinehurst Nissan,10910 S US Highway 15-501,Southern Pines,28387,910-684-1010,Private,35.161067,-79.421191,47037
Classic Nissan - Statesville,1244 E Garner Bagnal Blvd,Statesville,28677,704-872-8500,Public - Call ahead,35.770417,-80.858363,47038
Crossroads Nissan - Wake Forest,11120 Capital Blvd,Wake Forest,27587,919-435-5700,Public - Call ahead,35.948971,-78.539171,47040
Crossroads Nissan - Wake Forest,11120 Capital Blvd,Wake Forest,27587,919-435-5700,Private,35.948971,-78.539171,47041
Wilkes Nissan,1933 US Highway 421B,Wilkesboro,28697,336-838-3167,Public - Call ahead,36.149969,-81.202184,47042
Wilkes Nissan,1933 US Highway 421B,Wilkesboro,28697,336-838-3167,Private,36.149969,-81.202184,47043
Capital Nissan - Wilmington,5501 Market St,Wilmington,28405,877-606-5859,Public - Call ahead,34.24769,-77.865815,47044
Capital Nissan - Wilmington,5501 Market St,Wilmington,28405,877-606-5859,Private,34.24769,-77.865815,47045
Lee Nissan,4170 Raleigh Rd Pkwy,Wilson,27896,252-237-4400,Public - Call ahead,35.756003,-77.9753,47046
Lee Nissan,4170 Raleigh Rd Pkwy,Wilson,27896,252-237-4400,Private,35.756003,-77.9753,47047
Modern Nissan,5795 University Pkwy,Winston-Salem,27105,336-767-8260,Public - Call ahead,36.179741,-80.275364,47048
Modern Nissan,5795 University Pkwy,Winston-Salem,27105,336-767-8260,Private,36.179741,-80.275364,47049
East Charlotte Nissan,6901 E Independence Blvd,Charlotte,28227,704-535-4012,Public - Call ahead,35.167774,-80.742259,47117
East Charlotte Nissan,6901 E Independence Blvd,Charlotte,28227,704-535-4012,Private,35.167774,-80.742259,47118
Scott Clark Nissan,9215 S Blvd,Charlotte,28273,704-552-9191,Public - Call ahead,35.111292,-80.881867,47119
Scott Clark Nissan,9215 S Blvd,Charlotte,28273,704-552-9191,Private,35.111292,-80.881867,47120
Haywood Community College,185 Freedlander Dr,Clyde,28721,828-627-2821,Public,35.525966,-82.927696,47121
Modern Nissan - Concord,967 Concord Pkwy S,Concord,28027,704-788-2110,Private,35.392063,-80.622777,47122
Modern Nissan - Lake Norman,18615 Statesville Rd,Cornelius,28031,704-237-5100,Public - Call ahead,35.467117,-80.872205,47123
Modern Nissan - Lake Norman,18615 Statesville Rd,Cornelius,28031,704-237-5100,Private,35.467117,-80.872205,47124
Durham County - Justice Center Parking Deck,510 S Dillard St,Durham,27701,919-560-7999,Public,35.99289,-78.9014,47126
Nissan of Elizabeth City,1712 N Rd St,Elizabeth City,27909,252-338-5161,Public - Call ahead,36.339936,-76.244936,47130
Nissan of Elizabeth City,1712 N Rd St,Elizabeth City,27909,252-338-5161,Private,36.339936,-76.244936,47131
Fred Anderson Nissan,4559 Raeford Rd,Fayetteville,28304,910-758-2338,Private,35.042419,-78.956747,47132
Asheboro Nissan,1635 E Dixie Dr,Asheboro,27203,,Public - Call ahead,35.70458,-79.781748,47184
Asheboro Nissan,1635 E Dixie Dr,Asheboro,27203,,Private,35.70458,-79.781748,47185
Anderson Nissan,629 Brevard Rd,Asheville,28806,828-252-0000,Public - Call ahead,35.547866,-82.599474,47186
Anderson Nissan,629 Brevard Rd,Asheville,28806,828-252-0000,Private,35.547866,-82.599474,47187
Black Mountain Public Safety Building,102 Montreat Rd,Black Mountain,28711,828-419-9350,Public,35.619218,-82.320192,47189
AutoStar Nissan - Boone,135 Innovation Dr,Boone,28607,828-264-7726,Public - Call ahead,36.222859,-81.63402,47190
AutoStar Nissan - Boone,135 Innovation Dr,Boone,28607,828-264-7726,Private,36.222859,-81.63402,47191
Leith Nissan,2100 Auto Park Blvd,Cary,27511,919-589-0029,Public - Call ahead,35.7390019,-78.8138134,47192
Leith Nissan,2100 Auto Park Blvd,Cary,27511,919-589-0029,Private,35.7390019,-78.8138134,47193
Orange County - Robert and Pearl Seymour Center,2551 Homestead Rd,Chapel Hill,27516,919-245-2625,Public,35.950629,-79.063354,47332
Orange County - Skills Development Center,503 W Franklin St,Chapel Hill,27516,919-245-2625,Public,35.909907,-79.06344,47333
Orange County - Durham Technical Community College Park & Ride Lot,525 College Park Dr,Hillsborough,27278,919-245-2625,Public,36.04236,-79.09323,47334
Orange County - West Campus Office Building,131 W Margaret Ln,Hillsborough,27278,919-245-2625,Public,36.073889,-79.100586,47335
Umstead Hotel and Spa,100 Woodland Pond Dr,Cary,27513,919-447-4000,Public,35.82973,-78.7646,47718
Fields Auto Group,255 Smokey Park Hwy,Asheville,28806,828-667-5213,Public - Call ahead,35.562735,-82.63133,48042
Cherokee Welcome Center,498 Tsali Blvd,Cherokee,28719,800-438-1601,Public,35.483554,-83.31624,48044
Boyd Automotive,1875 Spartanburg Hwy,Hendersonville,28792,828-693-3461,Public - Call ahead,35.294913,-82.432913,48045
Asheville Chevrolet,205 Smoky Park Hwy,Asheville,28806,866-688-1210,Public - Credit card at all times,35.563115,-82.630535,48678
Blue Ridge Community College - Spearman Building,2 E Campus Dr,Flat Rock,28731,828-694-1700,Public,35.306506,-82.421425,48682
Nissan of Clinton,412 Southeast Blvd,Clinton,28328,910-590-2005,Public - Call ahead,34.999456,-78.309597,49874
Nissan of Clinton,412 Southeast Blvd,Clinton,28328,910-590-2005,Private,34.999456,-78.309597,49875
Wake Technical Community College,9101 Fayetteville Rd,Raleigh,27603,919-866-5000,Public,35.651689,-78.706233,49881
Town of Southern Pines - Library,170 W Connecticut Ave,Southern Pines,28387,910-692-8235,Public,35.176173,-79.390553,49882
City of Wilmington - Market Street Parking Deck,115 Market St,Wilmington,28401,910-762-5678,Public,34.235678,-77.948353,49883
Buncombe County - Health and Human Services,40 Coxe Ave,Asheville,28801,828-250-4976,Public,35.593656,-82.555258,50172
Buncombe County Interchange Building,59 Woodfin Pl,Asheville,28801,,Private - Government only,35.599429,-82.546527,50392
Orange County - West Campus Office Building,131 W Margaret Ln,Hillsborough,27278,919-245-2625,Public,36.073889,-79.100586,50393
SAS Institute Inc - T,701 SAS Campus Dr,Cary,27513,,Private,35.823796,-78.752235,50688
SAS Institute Inc - C,820 SAS Campus Dr,Cary,27513,,Private,35.817516,-78.751668,50689
Levine Properties,325 E 9th St,Charlotte,28202,704-688-3333,Public,35.228706,-80.834507,50691
McCurry Deck Chevrolet,178 Watkins Dr,Forest City,28043,,Private,35.312853,-81.878889,50697
Gastonia Conference Center,145 Dr MLK Jr Way,Gastonia,28052,704-869-1948,Public,35.262936,-81.182459,50698
West Regional Library,4000 Louis Stephens Dr,Cary,27519,919-463-8500,Public,35.815061,-78.864062,52057
East Regional Library,946 Steeple Square Rd,Knightdale,27545,919-217-5300,Public,35.802473,-78.487298,52058
Woodlawn Funeral Home,375 Woodlawn Ave,Mt. Holly,28120,704-820-0608,Public - Call ahead,35.3041747,-81.0210277,52376
Mooresville Ford,151 E Plaza Dr,Mooresville,28115,704-664-1300,Public,35.589615,-80.834215,53885
Steak 'n Shake,11 Bett Stroud Rd,Weaverville,28787,828-645-0126,Public,35.7027,-82.5758,53887
UNC B-SCHOOL DECK,Kenan Drive,Chapel Hill,27514,888-758-4389,Public,35.900785,-79.046279,58187
Ambiente Modern Furniture,210 Hampton Woods Ln,Raleigh,27607,919-821-7210,Public,35.793985,-78.750329,60264
BMW  ASHEVILLE STATION 01,649 Airport Rd,Fletcher,28732,888-758-4389,Public,35.438431,-82.53562,60789
Fred Anderson Nissan,9225 Glenwood Ave,Raleigh,27617,919-324-3443,Public - Call ahead,35.896757,-78.760671,61410
Fred Anderson Nissan,9225 Glenwood Ave,Raleigh,27617,919-324-3443,Private,35.896757,-78.760671,61411
CROWN BMW STATION 01,3902 Wendover Ave W,Greensboro,27407,888-758-4389,Public,36.060492,-79.877721,61520
GASTON COUNTY VISITOR CENTER,620 N. Main Street,Belmont,28012,888-758-4389,Public,35.2566,-81.042796,61737
GASTON COUNTY LOWELL LIBRARY,203 McAdenville Rd.,Lowell,28098,888-758-4389,Public,35.267294,-81.098034,61738
Echoview Fiber Mill,76 Jupiter Rd,Weaverville,28787,828-348-4864,Public,35.759451,-82.54994,62280
Fields Auto Group,255 Smokey Park Hwy,Asheville,28806,828-667-5213,Private,35.562735,-82.63133,62314
Ben Mynatt Chevrolet Cadillac,281 Concord Pkwy S,Concord,28027,704-786-2151,Public - Call ahead,35.395326,-80.610927,62828
SAS Institute Inc - G,300 Matrix Dr,Cary,27513,,Private,35.823401,-78.76124,63074
SAS Institute Inc - S,600 SAS Campus Dr,Cary,27607,,Private,35.822242,-78.757042,63075
SAS Institute Inc - R,500 SAS Campus Dr,Cary,27513,,Private,35.824815,-78.757352,63076
BSMG NORTH DECK 1,305 Jackson St,Durham,27701,888-758-4389,Public,35.994829,-78.905062,63239
BSMG EAST DECK 3,250 South Mangum Street,Durham,27701,888-758-4389,Public,35.992578,-78.902123,63298
BSMG SOUTH DECK 1,705 Willard Street,Durham,27701,888-758-4389,Public,35.991785,-78.906252,63299
UNC RAMSHEAD 1,104 Ridge Rd,Chapel Hill,27514,888-758-4389,Public,35.906068,-79.045679,63303
UNC CARDINAL DECK 1,Cardinal Deck Skywalk,Chapel Hill,27514,888-758-4389,Public,35.90333,-79.052449,63335
Appalachian State University - Rivers Street Parking Deck,461 Rivers St,Boone,28608,828-262-2878,Public,36.211913,-81.680812,63368
RTP EMC - RTP,62 T W Alexander Drive,Durham,27703,888-758-4389,Public,35.919842,-78.87791,63766
Gaston Courthouse Community Center,131 N Gaston St,Dallas,28034,704-922-3176,Public,35.316002,-81.176575,64399
Asheville Ford,611 Brevard Rd,Asheville,28806,828-253-2731,Private,35.550684,-82.601894,64510
North Carolina State University - Keystone Science Center,1791 Varsity Dr,Raleigh,27606,919-513-3334,Public,35.774673,-78.677792,64755
Ingles Market,2130 E Main St,Lincolnton,28092,704-735-2398,Public,35.478123,-81.221638,65509
Sunshine Chevrolet,100 Thunderland Cir,Arden,28704,,Public - Call ahead,35.480846,-82.564542,65512
Mills Rentals Office,120 Purefoy Rd,Chapel Hill,27514,919-967-0045,Public - Credit card at all times,35.897388,-79.052478,65520
"Piedmont Triad Regional Council, NC",1398 Carrollton Crossing Drive,Kernsersville,27284,855-885-9571,Public,36.079558,-80.064636,65924
Ingles Market,915 Merrimon Ave,Asheville,28804,828-253-1326,Public,35.62983,-82.552775,66409
BSMG SOUTH DECK 2,Julian Carr St,Durham,27701,888-758-4389,Public,35.992658,-78.905999,66697
Concord Regional Airport - Hourly Parking Lot,9000 Aviation Blvd,Concord,28027,704-920-5900,Public,35.385521,-80.712971,67127
MEBANE TANGER EV 1,4000 Arrowhead Blvd,Mebane,27302,888-758-4389,Public,36.074911,-79.26771,67172
SAS Institute Inc - U,720 SAS Campus Dr,Cary,27513,,Private,35.820801,-78.753109,68003
SAS Institute Inc - Q,801 SAS Campus Dr,Cary,27513,,Private,35.82111,-78.749317,68004
SAS Institute Inc - H,301 SAS Campus Dr,Cary,27513,,Private,35.827144,-78.76066,68005
SAS Institute Inc - LW,104 SAS Campus Dr,Cary,27513,,Private,35.828483,-78.767465,68006
Beach Ready Auto,8863 Caratoke Hwy,Point Harbor,27964,252-489-4891,Public,36.093125,-75.808695,68269
Publix #1442,11222 Providence Rd W,Charlotte,28277,704-716-2344,Public,35.0435,-80.84951,68383
Publix #1453,2222 South Blvd,Charlotte,28203,704-373-2122,Public,35.208237,-80.86254,68384
ASBURYVILLAGE ASBURY STAT 1,814 Handsworth Ln,Raleigh,27607,888-758-4389,Public,35.795027,-78.738174,68827
VRF ROBINSON FARM,8430 Rea Rd,Charlotte,28277,888-758-4389,Public,35.053318,-80.81217,70594
FPWC HONEYCUTT 1,352-498 Devers St Honeycutt Park,Fayetteville,28303,888-758-4389,Public,35.069194,-78.92208,71809
UNC CRAIGE DECK,290-296 Manning Dr,Chapel Hill,27514,888-758-4389,Public,35.902571,-79.047712,73277
Piedmont Triad International Airport,1000 A Ted Johnson Pkwy,Greensboro,27409,336-665-5631,Public,36.105313,-79.938316,73468
"CHARLOTTE, NC HUNTERSVILLE 01",10300 Compass St,Huntersville,28078,888-758-4389,Public,35.41369,-80.857192,73502
"CHARLOTTE, NC SOUTHEND 02",1428 South Blvd,Charlotte,28203,888-758-4389,Public,35.215386,-80.853754,73525
"CHARLOTTE, NC SOUTHEND 01",1424-1436 South Blvd,Charlotte,28203,888-758-4389,Public,35.215337,-80.853918,73527
HALIFAXCNTYCVB STATION 01,260 Premier Blvd,Roanoke Rapids,27870,888-758-4389,Public,36.426982,-77.631357,74559
Rider Transit System,635 Alfred Brown Jr Court SW,Concord,28025,704-920-5431,Public,35.37637407,-80.56380056,75480
City of Concord - Parking Deck,35 Cabarrus Ave W,Concord,28026,704-920-5431,Public,35.409825,-80.582282,75481
BEMC OIB,44 E 1st St,Ocean Isle Beach,28469,888-758-4389,Public,33.888258,-78.432809,75527
HALIFAXCNTYCVB HGI STATION 01,111 Carolina Crossroads Pkwy,Roanoke Rapids,27870,888-758-4389,Public,36.398861,-77.640846,76532
HALIFAXCNTYCVB HAMPTON INN 01,85 Hampton Blvd,Roanoke Rapids,27870,888-758-4389,Public,36.432713,-77.630786,76533
Caromont Regional Medical Center,2525 Court Dr,Gastonia,28054,704-834-2000,Public,35.27153,-81.141587,76881
Southern Alliance for Clean Energy,46 Orchard St,Asheville,28801,,Private,35.601009,-82.548012,76914
"CHARLOTTE, NC CATS I-485 4",9512 South Blvd,Charlotte,28273,888-758-4389,Public,35.106994,-80.883287,78305
"CHARLOTTE, NC CMPD LEC 1",601 E. Trade St.,Charlotte,28202,888-758-4389,Public,35.223157,-80.836819,78355
BERNCHARGE BERNHARDT EVSE,1839 Morganton Blvd SW,Lenoir,28645,888-758-4389,Public,35.896887,-81.558321,78873
AVL TECH PARK EV CHARGER 01,15 N Merrimon Ave,Asheville,28801,888-758-4389,Public,35.639777,-82.575849,79380
DEVON FOUR25 DEVON FOUR25,425 N Boylan Ave,Raleigh,27603,888-758-4389,Public,35.786358,-78.649851,80023
HARRIS TEETER HT 003,4821 Berwick Town Center Dr,Charlotte,28278,888-758-4389,Public,35.160957,-80.973479,80109
DUKEPTS SDG 2,302 Science Drive Science Drive Garage,Durham,27708,888-758-4389,Public,35.99613,-78.947421,80187
DUKEPTS SDG VISITOR JB,Thomas Center Dr Science Drive Garage,Durham,27708,888-758-4389,Public,35.996268,-78.947219,80188
LANTOWER WAVERL SW EV2,11809 Providence Rd,Charlotte,28277,888-758-4389,Public,35.050642,-80.766069,80325
New Belgium Brewery,21 Craven St,Asheville,28806,828-333-6900,Public,35.586702,-82.570643,80421
Ingles Market,867 Brevard Rd,Asheville,28806,828-665-0787,Public,35.530128,-82.606464,81000
Ingles Market,201 Barber Blvd,Waynesville,28786,828-456-7599,Public,35.504331,-82.987681,81001
Publix #1475,34 Miller St,Winston-Salem,27104,336-724-3707,Public,36.094603,-80.275497,81084
CITY OF WILSON POLICE LOT,212 Green St E,Wilson,27893,888-758-4389,Public,35.724962,-77.908933,81756
DUKEPTS RDG1,304 Research Dr,Durham,27710,888-758-4389,Public,36.00702,-78.941262,81839
GASTONIA 1555 E GARRISON,1555 E Garrison Blvd,Gastonia,28054,888-758-4389,Public,35.252107,-81.157763,82191
Maggie Valley - Town Hall,3987 Soco Rd,Maggie Valley,28751,828-926-0866,Public,35.517156,-83.09442,82222
SANFORDEVHORNER 151 S HORNER 01,151 S Horner Blvd,Sanford,27330,888-758-4389,Public,35.479392,-79.179842,82513
PIEDMONT EMC PEMC,2500 NC-86 PEMC Visitor Lot,Hillsborough,27278,888-758-4389,Public,36.045546,-79.080706,82601
MUNICIPAL LOT GRANITE FALLS,17 State Rd 1107,Granite Falls,28630,888-758-4389,Public,35.797815,-81.430339,82603
Hot Springs Resort & Spa - Campground,247 Bridge St,Hot Springs,28743,828-622-7676,Public,35.893472,-82.824906,85685
PIEDMONT TRIAD COBLE TRANS CTR,8310 W. Market Street,Greensboro,27409,888-758-4389,Public,36.093768,-79.95943,85770
WEST JEFFERSON WEST JEFFERSON,414 School Ave,West Jefferson,28694,888-758-4389,Public,36.402542,-81.489421,85773
Western Carolina University,320 Memorial Dr,Cullowhee,28723,828-227-7442,Public,35.311874,-83.183414,85786
ELM-MARSHALL ST GRAHAM,200-206 E Elm St,Graham,27253,888-758-4389,Public,36.069424,-79.398463,85790
Ingles Market,625 Spartanburg Hwy,Hendersonville,28739,828-692-1368,Public,35.306469,-82.456078,85948
Holiday Inn Express,107 Upward Crossing Dr,Flat Rock,28731,828-698-8899,Public,35.29856,-82.409937,85954
Monroe Nissan,5510 W Highway 74,Indian Trail,28110,704-288-3654,Public - Call ahead,35.060577,-80.631499,85968
SPECTRUM BLDG B2 1,300 S Tryon St,Charlotte,28202,888-758-4389,Public,35.225662,-80.845776,85987
Albemarle Corp,4350 Congress St,Charlotte,28209,,Public,35.154231,-80.837508,86027
Duke Energy,526 S Church St,Charlotte,28202,,Private,35.225061,-80.849351,86063
Duke Energy,1040 Beason Creek Rd,Kings Mountain,28086,,Private,35.236976,-81.414012,86064
Duke Energy,4412 Hillsborough Rd,Durham,27705,,Private,36.035299,-78.973331,86066
Duke Energy,250 9th St Ln SE,Hickory,28602,,Private,35.73312,-81.319387,86067
Duke Energy,410 S Mint St,Charlotte,28202,,Private,35.227182,-80.850301,86068
Duke Energy,610 Toddville Rd,Charlotte,28214,,Private,35.276037,-80.915771,86079
Duke Energy,431 S Salisbury St,Raleigh,27601,,Private,35.774724,-78.640402,86120
Duke Energy,602 Raleigh Rd,Henderson,27536,,Private,36.309215,-78.409358,86121
Duke Energy,2637 Gum Branch Rd,Jacksonville,28540,,Private,34.803916,-77.4468,86122
Duke Energy,1020 W Chatham St,Cary,27511,,Private,35.773958,-78.803281,86123
Duke Energy,1422 Mechanical Blvd,Garner,27529,,Private,35.71922,-78.629588,86124
Duke Energy,160 Rush St,Raleigh,27603,,Private,35.7417,-78.642369,86125
Duke Energy,4690 Simms Creek Rd,Raleigh,27616,,Private,35.884757,-78.564544,86126
Duke Energy,25 Burlington Rd,Roxboro,27573,,Private,36.390045,-79.000328,86127
Duke Energy,555 Brevard Rd,Asheville,28806,,Private,35.511376,-82.600756,86129
Duke Energy,700 E Ritchie Rd,Salisbury,28146,,Private,35.624893,-80.492531,86156
Duke Energy,410 S Wilmington St,Raleigh,27601,,Private,35.774838,-78.63743,86166
Duke Energy,1451 Military Cutoff Rd,Wilmington,28403,,Private,34.224815,-77.829645,86174
City of Hendersonville - Azalea Parking Lot,301 N King St,Hendersonville,28792,828-697-3000,Public,35.316047,-82.458795,86263
A&ET CAPE FEAR CC,4500 Blue Clay Rd Behind NB Building,Castle Hayne,28429,888-758-4389,Public,34.324938,-77.879843,86919
STARWORKS STARWORKS,100 Russell Dr,Star,27356,888-758-4389,Public,35.406401,-79.785713,86942
TOC EV STATIONS TOWNHALL,301 W Main St,Carrboro,27510,888-758-4389,Public,35.91116,-79.077496,86956
FLAT ROCK NC VILLAGE OFFICE,110 Village Center Dr,Flat Rock,28731,888-758-4389,Public,35.272712,-82.441517,86959
Blue Ridge Community College - Brevard Campus,45 Oak Park Dr,Brevard,28712,828-694-1700,Public,35.250058,-82.720567,86965
PIEDMONT TRIAD MEBANE SOUTH,3940 Arrowhead Blvd,Mebane,27302,888-758-4389,Public,36.074761,-79.270004,87572
DUKEPTS PG2 LEVEL 7,2300-2314 Erwin Rd,Durham,27705,888-758-4389,Public,36.008327,-78.937789,87609
City of Archdale - Creekside Park,214 Park Dr,Archdale,27263,336-431-9141,Public,35.893721,-79.935725,87805
City of Archdale - City Hall,307 Balfour Dr,Archdale,27263,336-431-9141,Public,35.89954,-79.961673,87806
Town of Sylva - Bridge Park,76 Railroad Ave,Sylva,28779,828-586-2719,Public,35.374319,-83.224975,87963
DILLSBORO NC TOWN HALL PARK,Depot St Town Hall Park,Dillsboro,28275,888-758-4389,Public,35.369982,-83.249138,88015
HARRIS TEETER MORCROFT,3908 Colony Rd,Charlotte,28211,888-758-4389,Public,35.153275,-80.825473,88081
RSP GARAGE RSP EV1,6621-6665 S Park Dr,Charlotte,28211,888-758-4389,Public,35.152842,-80.828638,88291
KINSTON WOODMEN,2602 W Vernon Ave,Kinston,28504,888-758-4389,Public,35.267617,-77.619577,88391
KINSTON GRAINGER STADIU,421 E Grainger Ave,Kinston,28501,888-758-4389,Public,35.269397,-77.574478,88393
KINSTON HERITAGE,101 N. Herritage St,Kinston,28501,888-758-4389,Public,35.260523,-77.58274,88430
ORIENTAL S1 ORIENTAL MARINA,303 South Ave,Oriental,28571,888-758-4389,Public,35.02412,-76.695302,88518
ORIENTAL S1 TOWN HALL,507 Church St,Oriental,28571,888-758-4389,Public,35.028864,-76.694792,88519
KINSTON LENOIR CC,231 North Carolina Hwy 58,Kinston,28504,888-758-4389,Public,35.233117,-77.570911,88592
Asheville Regional Airport - Hourly Parking Lot,61 Terminal Dr,Fletcher,28732,828-684-2226,Public,35.434874,-82.537656,88616
COH POLICE DEPT,172 Wyche St,Henderson,27536,888-758-4389,Public,36.327352,-78.403989,88714
SKYNET RANKIN PARKING,2-24 Rankin Ave,Asheville,28801,888-758-4389,Public,35.595922,-82.553836,88725
Ingles Market,1670 Brown Ave,Waynesville,28786,828-456-8776,Public,35.470142,-83.004869,91903
Blue Ridge Community College - Patton Hall,43-65 W Campus Dr,Flat Rock,28731,828-694-1700,Public,35.307808,-82.426922,91905
WF EV STATIONS S WHITE EV,150 S White St,Wake Forest,27587,888-758-4389,Public,35.978194,-78.510054,92409
SHUTE PARKING MONROE 1,214 NC-207,Monroe,28112,888-758-4389,Public,34.980492,-80.549375,92411
NOVEL NODA EV CHARGER 01,424 E 36th St,Charlotte,28205,888-758-4389,Public,35.248562,-80.806547,92421
RCC COLLEGE SOUTH 2000 LOT,1531 Trinity Church Rd,Concord,28027,888-758-4389,Public,35.437046,-80.659445,92435
RCC COLLEGE NORTH 600 LOT,1333 Jake Alexander Blvd. S,Salisbury,28146,888-758-4389,Public,35.639123,-80.483178,92444
PEMBROKE CHARGE STATION CT4000,202 Main St,Pembroke,28372,888-758-4389,Public,34.680435,-79.193414,92445
ECU AUSTIN BUILDING,Dixon Dr,Greenville,27858,888-758-4389,Public,35.605769,-77.362353,92451
GASTONIA SOCIAL SERVICES,330 Dr M.L.K. Jr. Way,Gastonia,28052,888-758-4389,Public,35.265924,-81.180696,92452
University of North Carolina - Parking Deck,5-11 University Heights,Asheville,28804,828-251-6691,Public,35.6188,-82.566569,94357
Town of Lake Lure,2932 Memorial Hwy,Lake Lure,28746,828-625-9983,Public,35.435111,-82.231733,94358
BEMC CALABASH,1045 River Rd,Calabash,28467,888-758-4389,Public,33.889609,-78.566864,94377
EPROPERTY FIRST FLOOR GW,9101-9199 Sessions St,Charlotte,28273,888-758-4389,Public,35.137368,-80.929169,95012
EPROPERTY FIRST FLOOR GW2,2401-2621 Silver Cres Dr,Charlotte,28273,888-758-4389,Public,35.137204,-80.929129,95013
REVUP1 NC ZOO2,Zoo Pkwy,Asheboro,27205,888-758-4389,Public,35.630452,-79.765581,96720
REVUP1 SOLAR POINT 1,4401 Zoo Parkway,Asheboro,27205,888-758-4389,Public,35.627228,-79.766688,96725
WHOLE FOODS MKT CHARLOTTE STA 1,400 E Stonewall St,Charlotte,28202,888-758-4389,Public,35.221064,-80.84649,98566
BEMC SHALLOTTE,299-355 Mulberry St,Shallotte,28470,888-758-4389,Public,33.974158,-78.386606,98568
Social Security Administration,1 Innovation Dr,Research Triangle Park,27709,,Private,35.877576,-78.88564,98678
PPS PREFERRED PKNG,1916 Doggett St,Charlotte,28203,888-758-4389,Public,35.211793,-80.861685,99678
DILLON STATION STATION1,223 S West St,Raleigh,27603,888-758-4389,Public,35.777973,-78.645687,99756
WEINSTEIN CARPENTER1,2074 Geddy House Ln,Cary,27519,888-758-4389,Public,35.82114,-78.859447,99819
WEINSTEIN TRIANGLE1,1200 Pickett Branch Rd,Cary,27519,888-758-4389,Public,35.857658,-78.89673,99843
WEINSTEIN BRIER1,8200 Stonebrook Terrace,Raleigh,27617,888-758-4389,Public,35.910497,-78.787751,99977
HAMPTON INN SUITES DOBSON,150 Charlestowne Dr,Elkin,28621,888-758-4389,Public,36.393098,-80.786257,99997
WEINSTEIN CONCORD1,611 Blue Sky Dr,Concord,28027,888-758-4389,Public,35.375523,-80.720205,100044
JLR CARY LEITH 1 - FRONT,1000 Autopark Blvd,Cary,27511,888-758-4389,Public,35.73965,-78.814925,100336
SYEMC HQ,510 S Main St,Dobson,27017,888-758-4389,Public,36.388179,-80.718715,100397
Ingles Market,1257 Georgia Rd,Franklin,28734,828-524-9321,Public,35.156931,-83.392158,100482
The Factory - Franklin,1024 Georgia Rd,Franklin,28734,828-349-8888,Public,35.160381,-83.389547,100483
The Inn on Biltmore Estate,1 Antler Hill Rd,Asheville,28803,828-225-1625,Public,35.5568,-82.577065,100484
Village Hotel on Biltmore Estate,207 Dairy Rd,Asheville,28803,828-225-1362,Public,35.554142,-82.582147,100485
CITY OF WILM MKT ST DECK,11 N 2nd St,Wilmington,28401,888-758-4389,Public,34.235975,-77.947846,100567
Asheville Outlets - Tesla Supercharger,800 Brevard Road,Asheville,28806,877-798-3752,Public,35.531428,-82.604495,102268
Alamance Crossing - Tesla Supercharger,1080 Piper Ln,Burlington,27215,877-798-3752,Public,36.070788,-79.511222,102269
Cochran Commons - Tesla Supercharger,2720 W Mallard Creek Church Rd,Charlotte,28262,877-798-3752,Public,35.34075,-80.76579,102270
DoubleTree by Hilton Hotel - Tesla Supercharger,1965 Cedar Creek Road,Fayetteville,28312,877-798-3752,Public,35.009458,-78.822461,102271
Sheetz - Tesla Supercharger,5421 Hornaday Road,Greensboro,27407,877-798-3752,Public,36.05946,-79.908323,102272
Sheetz - Tesla Supercharger,2191 13th Avenue Drive SE,Hickory,28602,877-798-3752,Public,35.706541,-81.294428,102273
Texas Steakhouse and Saloon - Lumberton - Tesla Supercharger,5093 Fayetteville Rd.,Lumberton,28358,877-798-3752,Public,34.667629,-79.002343,102274
North Hills - Tesla Supercharger,Lassiter at North Hills Ave,Raleigh,27609,877-798-3752,Public,35.835539,-78.643001,102276
DoubleTree Rocky Mount - Tesla Supercharger,651 N. Winstead Avenue,Rocky Mount,27804,877-798-3752,Public,35.972904,-77.846845,102277
Mad Boar Restaurant - Tesla Supercharger,111 River Village Place,Wallace,28466,877-798-3752,Public,34.756268,-77.947684,102278
Mayfaire Town Center - Tesla Supercharger,6835 Conservation Way,Wilmington,28405,877-798-3752,Public,34.240825,-77.829189,102279
CAPE HATTERAS HATTERAS,59063 NC-12,Hatteras,27953,888-758-4389,Public,35.207636,-75.701494,102675
WTCC SWC SWC STATION 3&4,4400 Chandler Ridge Cir Wake Tech College,Raleigh,27603,888-758-4389,Public,35.652141,-78.706033,102678
COCPARKING STATION 1,28 Cabarrus Ave W,Concord,28025,888-758-4389,Public,35.410242,-80.58205,102702
CLT AIRPORT BUS. VALET 05,5601 Wilkinson Blvd,Charlotte,28208,888-758-4389,Public,35.23286,-80.935804,102938
HIGHWOODS RTP 751 CORP EV 1,751 Corporate Center Drive,Raleigh,27607,888-758-4389,Public,35.793618,-78.741801,104039
Sierra Nevada Brewery,100 Sierra Nevada Way,Mills River,28732,828-681-5300,Public,35.430833,-82.553153,104145
Secure Parking - BAC Parking Deck,150 N College St,Charlotte,28202,704-331-0055,Private,35.226655,-80.840749,104202
Town of Elkin - Farmers Market,101 E Market St,Elkin,28621,336-258-8908,Public,36.245222,-80.850472,104306
Town of Elkin - Heritage and Trails Center,257 Standard St,Elkin,28621,336-526-1111,Public,36.242635,-80.851461,104307
Town of Elkin - Recreation Center,399 NC Highway 268 W,Elkin,28621,336-258-8917,Public,36.247855,-80.855906,104308
GASTONIA CITY HALL,181 S South St,Gastonia,28052,888-758-4389,Public,35.26251,-81.183977,104534
PARK CENTRAL PC STATION 2,200 Park at N Hills St,Raleigh,27609,888-758-4389,Public,35.835634,-78.637195,104930
VMC VIDANT HEALTH,365 Emergency Dr,Greenville,27834,888-758-4389,Public,35.607875,-77.407225,105149
Cafe Root Cellar,35 Suttles Rd,Pittsboro,27312,919-674-2990,Public,35.72130458,-79.17745311,105189
Bunn House Boutique Hotel - Tesla Destination,15 Clayton St,Asheville,28801,828-333-8700  877-798-3752,Public,35.601686,-82.549146,114639
DoubleTree by Hilton Asheville Downtown - Tesla Destination,199 Haywood St,Asheville,28801,828-505-8500  877-798-3752,Public,35.596138,-82.559747,114640
The Omni Grove Park Inn - Tesla Destination,290 Macon Ave,Asheville,28804,828-252-2711  877-798-3752,Public,35.620754,-82.542186,114641
"Albemarle Inn, a Select Registry Property - Tesla Destination",86 Edgemont Rd,Asheville,28801,828-255-0027  877-798-3752,Public,35.614854,-82.541825,114642
Grand Bohemian Hotel Asheville - Tesla Destination,11 Boston Wy,Asheville,28803,828-505-2949  877-798-3752,Public,35.566805,-82.544006,114643
The Mast Farm Inn - Tesla Destination,2543 Broadstone Rd,Banner Elk,28604,828-963-5857  877-798-3752,Public,36.2070886,-81.7715921,114644
Pecan Tree Inn - Tesla Destination,116 Queen St,Beaufort,28516,252-728-6733  877-798-3752,Public,34.716518,-76.662908,114645
The Boathouse at Front Street Village - Tesla Destination,2400 Lennoxville Rd,Beaufort,28516,252-504-4799  877-798-3752,Public,34.710116,-76.632036,114646
Old Stone Steakhouse - Tesla Destination,23 S Main St,Belmont,28012,704-825-9995  877-798-3752,Public,35.241715,-81.037882,114647
Hampton Inn Benson - Tesla Destination,100 Water Place Lndg,Benson,27504,919-701-8000  877-798-3752,Public,35.374259,-78.541779,114648
Hemlock Inn - Tesla Destination,134 Morris St,Blowing Rock,28605,828-295-0091  877-798-3752,Public,36.131495,-81.67785,114649
Chetola Resort at Blowing Rock - Tesla Destination,185 Chetola Lake Dr,Blowing Rock,28605,828-295-5500  877-798-3752,Public,36.139501,-81.673121,114650
The Inn at Ragged Gardens / Best Cellar Restaurant - Tesla Destination,203 Sunset Dr,Blowing Rock,28605,828-295-9703  877-798-3752,Public,36.133358,-81.676381,114651
Mountainaire Inn & Log Cabins - Tesla Destination,827 Main St,Blowing Rock,28605,828-295-7991  877-798-3752,Public,36.135234,-81.677183,114652
Makoto's Japanese Steakhouse & Sushi Bar - Tesla Destination,2124 Blowing Rock Rd,Boone,28607,828-264-7977  877-798-3752,Public,36.195272,-81.654462,114654
Brevard College - Appalachian Coffee Company - Tesla Destination,135 East French Broad St,Brevard,28712,828-883-8292  877-798-3752,Public,35.23576,-82.730093,114655
Brevard College - Sims Art Center - Tesla Destination,55 East Campus Dr,Brevard,28712,828-883-8292  877-798-3752,Public,35.238498,-82.729392,114656
"Country Inn & Suites - Burlington, NC - Tesla Destination",3211 Wilson Dr,Burlington,27215,336-584-1115  877-798-3752,Public,36.067842,-79.502316,114657
The Inn on Pamlico Sound - Tesla Destination,49684 Hwy 12,Buxton,27920,252-995-7030  877-798-3752,Public,35.262552,-75.569361,114658
Carteret Crossing Shopping Center - Tesla Destination,313 WB McLean Dr,Cape Carteret,28584,910-239-5580  877-798-3752,Public,34.69077,-77.067127,114659
The Umstead Hotel and Spa - Tesla Destination,100 Woodland Pond Dr,Cary,27513,919-447-4000  877-798-3752,Public,35.82945,-78.76476,114660
The Mayton Inn - Tesla Destination,301 S Academy St,Cary,27511,919-670-5000  877-798-3752,Public,35.784968,-78.780676,114661
The Ugly Dog Public House - Cashiers - Tesla Destination,25 Frank Allen Rd,Cashiers,28717,828-743-3000  877-798-3752,Public,35.111098,-83.099145,114662
The Inn at Governors Club - Tesla Destination,11470 Club Dr,Chapel Hill,27517,919-360-5321  877-798-3752,Public,35.846885,-79.041415,114664
The Carolina Inn - Tesla Destination,211 Pittsboro St,Chapel Hill,27516,919-933-2001  877-798-3752,Public,35.909583,-79.054686,114665
"The Franklin Hotel Chapel Hill, Curio Collection - Tesla Destination",311 W Franklin St,Chapel Hill,27516,919-442-9000  877-798-3752,Public,35.911118,-79.060128,114666
SpringHill Suites Charlotte Ballantyne Area - Tesla Destination,12325 Johnston Rd,Charlotte,28277,704-817-1500  877-798-3752,Public,35.070875,-80.842091,114667
Aloft Charlotte Ballantyne - Tesla Destination,13139 Ballantyne Corporate Pl,Charlotte,28277,704-247-2222  877-798-3752,Public,35.0582012,-80.8446616,114668
Embassy Suites Charlotte Ayrsley - Tesla Destination,1917 Ayrsley Town Blvd,Charlotte,28273,704-970-5400  877-798-3752,Public,35.136731,-80.92999,114669
Homewood Suites Charlotte Ayresly - Tesla Destination,1921 Ayrsley Town Blvd,Charlotte,28273,704-970-5500  877-798-3752,Public,35.137302,-80.931188,114670
Hyatt Place Charlotte Downtown - Tesla Destination,222 S Caldwell St,Charlotte,28202,704-227-0500  877-798-3752,Public,35.222575,-80.841084,114671
Renaissance Charlotte Suites Hotel - Tesla Destination,2800 Coliseum Centre Dr,Charlotte,28217,704-357-1414  877-798-3752,Public,35.188152,-80.914969,114672
Wingate By Wyndham Charlotte Airport I-85/I-485 - Tesla Destination,4238 Business Center Dr,Charlotte,28214,704-395-3600  877-798-3752,Public,35.242709,-80.939556,114673
Le Meridien Charlotte Hotel - Tesla Destination,555 S McDowell St,Charlotte,28204,704-362-9710  877-798-3752,Public,35.216778,-80.837748,114674
Crowne Plaza Charlotte Executive Park - Tesla Destination,5700 Westpark Dr,Charlotte,28217,704-527-9650  877-798-3752,Public,35.159454,-80.889803,114675
DoubleTree by Hilton Hotel Charlotte - Tesla Destination,895 W Trade St,Charlotte,28202,704-347-0070  877-798-3752,Public,35.233065,-80.851861,114676
Residence Inn & Courtyard by Marriott Charlotte Nort - Tesla Destination,9110 Harris Corners Pkwy,Charlotte,28208,704-719-9444  877-798-3752,Public,35.346241,-80.842233,114677
Cherokee Welcome Center - Tesla Destination,498 Tsali Blvd,Cherokee,28719,800-438-1601  877-798-3752,Public,35.483174,-83.316004,114678
Western Carolina University - Lot 30 - Tesla Destination,320 Memorial Dr,Cullowhee,28723,828-227-7411  877-798-3752,Public,35.310532,-83.18503649,114679
The Waterfront Shops - Tesla Destination,1240 Duck Rd,Duck,27949,252-256-0550  877-798-3752,Public,36.1700359,-75.7567885,114680
Sanderling Resort - Tesla Destination,1461 Duck Rd,Duck,27949,855-412-7866  877-798-3752,Public,36.223442,-75.770782,114681
Arrowhead Inn Bed & Breakfast - Tesla Destination,106 Mason Rd,Durham,27712,919-477-8430  877-798-3752,Public,36.11826,-78.903672,114682
The King's Daughters Inn - Tesla Destination,204 N Buchanan Blvd,Durham,27701,877-534-8534  877-798-3752,Public,36.003871,-78.91213,114683
Homewood Suites by Hilton Durham-Chapel Hill - Tesla Destination,3600 Mt. Moriah Rd,Durham,27707,919-401-0610  877-798-3752,Public,35.949499,-78.995446,114684
Elon University Inman Admissions Welcome Center - Tesla Destination,100 Campus Dr,Elon,27244,336-278-3566  877-798-3752,Public,36.104778,-79.50363,114685
Best Western Plus Greensboro Airport Hotel - Tesla Destination,7800 National Service Rd,Greensboro,27409,336-454-0333  877-798-3752,Public,36.077033,-79.959879,114686
Pinebrook Manor - Tesla Destination,2701 Kanuga Road,Hendersonville,28739,828-698-2707  877-798-3752,Public,35.2793994,-82.4888109,114687
200 Main - Tesla Destination,200 Main St,Highlands,28741,855-271-2809  877-798-3752,Public,35.054647,-83.201175,114688
The Ugly Dog Public House - Highlands - Tesla Destination,420 Spring St,Highlands,28741,828-526-8364  877-798-3752,Public,35.050994,-83.197429,114689
Old Edwards Inn and Spa - Tesla Destination,445 Main St,Highlands,28741,828-526-8008  877-798-3752,Public,35.052297,-83.196938,114690
Holiday Inn Express & Suites Concord - Tesla Destination,2491 Wonder Dr NE,Kannapolis,28083,704-743-1080  877-798-3752,Public,35.4640148,-80.5893789,114691
Outer Banks Brewing Station - Tesla Destination,600 S Croatan Hwy,Kill Devil Hills,27948,252-449-2739  877-798-3752,Public,36.009476,-75.659455,114692
Roanoke Island Inn - Tesla Destination,305 Fernando St,Manteo,27954,252-473-5511  877-798-3752,Public,35.907631,-75.67063,114693
Holiday Inn Express Mooresville - Lake Norman - Tesla Destination,1300 Norman Station Blvd,Mooresville,28115,704-662-6900  877-798-3752,Public,35.590989,-80.857206,114694
Hilton Garden Inn Charlotte/Mooresville - Tesla Destination,159 Gateway Blvd,Mooresville,28117,704-663-6468  877-798-3752,Public,35.5573581,-80.8571928,114695
Harrah's Cherokee Valley River Casino - Tesla Destination,777 Casino Pkwy,Murphy,28906,828-422-7777  877-798-3752,Public,35.114969,-83.992954,114696
Carolina Colours Town Centre - Tesla Destination,2032 Waterscape Wy,New Bern,28562,910-239-5580  877-798-3752,Public,35.01584,-77.009037,114697
Hanna House Bed & Breakfast - Tesla Destination,218 Pollock St,New Bern,28560,252-635-3209  877-798-3752,Public,35.106758,-77.037017,114698
The Aerie Bed and Breakfast - Tesla Destination,509 Pollock St,New Bern,28562,252-636-5553  877-798-3752,Public,35.1067998,-77.04247,114699
TC Corriher Implement Co. - Tesla Destination,12 S Ashe Ave,Newton,28658,828-381-6571  877-798-3752,Public,35.662822,-81.223768,114700
Pinehurst Resort - Tesla Destination,80 Carolina Vista Dr,Pinehurst,28374,910-295-6811  877-798-3752,Public,35.19562,-79.473736,114702
Aloft Raleigh - Tesla Destination,2100 Hillsborough St,Raleigh,27607,919-828-9900  877-798-3752,Public,35.786773,-78.663311,114703
Quality Inn Roanoke Rapids - Tesla Destination,1914 Julian R Allsbrook Hwy,Roanoke Rapids,27870,252-537-9927  877-798-3752,Public,36.43214,-77.631891,114704
Historic Tapoco Lodge - Tesla Destination,14981 Tapoco Rd,Robbinsville,28771,828-498-2800  877-798-3752,Public,35.443635,-83.938445,114705
Deal's Gap Motorcycle Resort - Tesla Destination,17555 Tapoco Rd,Robbinsville,28771,800-889-5550  877-798-3752,Public,35.466445,-83.920015,114706
Snowbird Mountain Lodge - Tesla Destination,4633 Santeetlah Rd,Robbinsville,28771,828-479-3433  877-798-3752,Public,35.342588,-83.890898,114707
Hampton Inn Salisbury - Tesla Destination,1001 Klumac Rd,Salisbury,28147,704-637-8000  877-798-3752,Public,35.642388,-80.484833,114708
"The Orchard Inn, a Select Registry Property - Tesla Destination",100 Orchard Inn Ln,Saluda,28773,828-749-5471  877-798-3752,Public,35.229295,-82.335268,114709
Hampton Inn Selma/Smithfield I-95 - Tesla Destination,1695 Outlet Center Dr,Selma,27576,919-965-6151  877-798-3752,Public,35.517803,-78.295406,114710
Residence Inn by Marriott Pinehurst Southern Pines - Tesla Destination,105 Brucewood Rd,Southern Pines,28387,910-693-3400  877-798-3752,Public,35.1728307,-79.4246222,114711
National Athletic Village - Tesla Destination,201 Air Tool Dr,Southern Pines,28387,910-585-3212  877-798-3752,Public,35.194297,-79.373228,114712
Comfort Suites Southport - Tesla Destination,4963 Southport-Supply Rd SE,Southport,28461,910-454-7444  877-798-3752,Public,33.9522552,-78.0514828,114713
"1906 Pine Crest Inn, a Select Registry Property - Tesla Destination",85 Pine Crest Ln,Tryon,28782,800-633-3001  877-798-3752,Public,35.208469,-82.233456,114714
Candlewood Suites Wake Forest Raleigh Area - Tesla Destination,12050 Retail Dr,Wake Forest,27587,919-554-6901  877-798-3752,Public,35.976409,-78.542788,114715
The Swag - Tesla Destination,2300 Swag Rd,Waynesville,28785,828-926-0430  877-798-3752,Public,35.573886,-83.093919,114716
Inn On Main - Tesla Destination,88 S Main St,Weaverville,28787,828-645-4935  877-798-3752,Public,35.6927437,-82.559905,114717
Red Oak Brewery - Tesla Destination,6901 Konica Dr,Whitsett,27377,336-447-2055  877-798-3752,Public,36.061886,-79.5705922,114718
The Forum - Tesla Destination,1125 Military Cutoff Rd,Wilmington,28405,910-256-2211  877-798-3752,Public,34.235388,-77.82831,114719
Ceviche's - Tesla Destination,7210 Wrightsville Ave,Wilmington,28403,910-256-3131  877-798-3752,Public,34.219908,-77.817552,114720
Southeastern Center for Contemporary Art (SECCA) - Tesla Destination,750 Marguerite Dr,Winston-Salem,27106,336-725-1904  877-798-3752,Public,36.119675,-80.289502,114721
LEXINGTON NC S. MAIN #1,333 S Main St,Lexington,27292,888-758-4389,Public,35.821356,-80.256161,116843
HONDASOUTHPOINT STATION01,1001 Southpoint Autopark Blvd,Durham,27713,888-758-4389,Public,35.907356,-78.954543,116939
WHOLE FOODS MKT CHARLOTTE 01,6610 Fairview Rd,Charlotte,28210,888-758-4389,Public,35.147177,-80.829899,117021
WHOLE FOODS MKT RALEIGH NRL 1,8710 Six Forks Rd,Raleigh,27615,888-758-4389,Public,35.899423,-78.649948,117049
HIGHWOODS RTP CENTREGREEN 1,5000 Centregreen Way,Cary,27513,888-758-4389,Public,35.82667,-78.79456,117060
HIGHWOODS RTP CENTREGREEN 4,5000 Centregreen Way,Cary,27513,888-758-4389,Public,35.826494,-78.794894,117062
HENDRICK SBLVD SERVICE 2,8901 South Blvd,Charlotte,28273,888-758-4389,Public,35.116208,-80.881641,117333
BLOWING ROCK BLOWING ROCK,333 Wallingford Rd,Blowing Rock,28605,888-758-4389,Public,36.132945,-81.679738,117633
MJM GROUP STATION 1,5110 Trojan Dr,Charlotte,28278,888-758-4389,Public,35.164749,-80.972577,117778
GATEWAY PARK MINT PARK,115 Depot St Historical Mint Park,Salisbury,28144,888-758-4389,Public,35.666362,-80.467532,118205
Capital Ford,5411 N Tryon St,Charlotte,28213,844-242-1515,Public - Call ahead,35.261309,-80.776713,118968
RALEIGH STATION DC FAST 02,4005 Capital Hills Dr,Raleigh,27616,888-758-4389,Public,35.887798,-78.568955,119005
HENDRICKCONCORD SHOP02,10037 Weddington Rd Ext.,Concord,28027,888-758-4389,Public,35.378923,-80.699979,119033
HENDRICKCONCORD STATION01,7650 Bruton Smith Blvd,Concord,28027,888-758-4389,Public,35.363961,-80.704474,119034
Marlowe Lake Boone Apartments,1731 Tupelo Hill Lane,Raleigh,27607,888-998-2546,Public,35.814248,-78.689886,120893
City of Shelby,126 W Marion St,Shelby,28150,704-484-6866,Public,35.29268,-81.541343,120910
Hendersonville Community Co-op,60 S Charleston Ln,Hendersonville,28792,828-693-0505,Public,35.305269,-82.44885,120914
COCPARKING STATION 3,80 Union St S,Concord,28025,888-758-4389,Public,35.408549,-80.579914,120970
CITY OF ELIZABE MARINERS EV 1,707 E Fearing St,Elizabeth City,27909,888-758-4389,Public,36.298787,-76.218709,120977
SPG 119 SOUTH,3000 Bluebird Lane,Mebane,27302,888-758-4389,Public,36.063466,-79.299886,120999
FOUR COUNTY EMC FOUR COUNTY HQ,1822 NC-53 West,Burgaw,28425,888-758-4389,Public,34.545632,-77.954039,121052
SERVICECHARGER SHOP 01,242 Underwood Rd,Fletcher,28732,888-758-4389,Public,35.440907,-82.533853,121106
Residence Inn & Courtyard - Charlotte North,9110 Harris Corners Pkwy,Charlotte,28208,704-719-9444,Public,35.344936,-80.842227,121301
University of North Carolina Charlotte - CRI Deck 1,9100 Robert D. Snyder Rd,Charlotte,28223,704-687-0161,Public,35.31027,-80.74364,121304
University of North Carolina Charlotte - South Village Parking Deck,8880 Johnson Alumni Way,Charlotte,28223,704-687-0161,Public,35.30438,-80.736847,121305
University of North Carolina Charlotte - East Deck 3,9328 Van Landingham Rd,Charlotte,28223,704-687-0161,Public,35.30656,-80.72646,121306
Keffer Chrysler Jeep Dodge Ram,8214 E Independence Blvd,Charlotte,28227,877-426-0070,Public - Call ahead,35.152137,-80.729776,121308
Publix #1518,4425 Randolph Rd,Charlotte,28211,704-367-5208,Public,35.177786,-80.799739,121309
Sterling Services,3372 Smith Farm Rd,Matthews,28104,704-821-3300,Public,35.086503,-80.678455,121310
Indian Trail Chrysler Dodge Jeep Ram,5501 W Highway 74,Monroe,28110,704-220-4370,Public - Call ahead,35.058525,-80.632095,121312
Whole Foods Market,7221 Waverly Walk Ave,Charlotte,28277,980-213-2400,Public,35.05123,-80.766313,121313
High Point NC Public Library,901 N Main St,High Point,27262,855-885-9571,Public,35.96615,-80.01336,121644
Pleasant Valley Promenade,6204 Glenwood Ave,Raleigh,27612,833-632-2778,Public,35.85731,-78.70359,121809
Holiday Inn Express - Plymouth - Tesla Supercharger,840 U.S. 64,Plymouth,27962,877-798-3752,Public,35.850587,-76.756116,122272
Hyatt Place Chapel Hill Southern Village - Tesla Destination,1090 US Hwy 15 501 S,Chapel Hill,27517,919-929-9511  877-798-3752,Public,35.881172,-79.062708,122499
237 S Tryon St Garage - Tesla Destination,237 S Tryon St,Charlotte,28202,704-375-6014  877-798-3752,Public,35.225407,-80.844865,122500
WINSTON-SALEM 4TH AND CHURCH,171 4th Street East Inside Parking Deck,Winston-Salem,27101,888-758-4389,Public,36.099111,-80.242665,122662
Captrust Tower,4208 Six Forks Rd.,Raleigh,27609,866-816-7584,Public,35.837015,-78.640051,123246
Verizon - Charlotte,2401 Sardis Rd N,Charlotte,28227,,Private,35.146862,-80.728887,123325
Verizon - Cary,6400 Weston Pkwy,Cary,27513,,Private,35.830871,-78.791809,123352
Bank of America - Financial Center,201 N Tryon St,Charlotte,28202,980-335-3561,Public,35.230261,-80.839631,123510
CROWN HONDA SHOP02,3633 W Wendover Ave,Greensboro,27407,888-758-4389,Public,36.059154,-79.869729,123583
Publix #1473,1830 Hendersonville Rd,Asheville,28803,828-274-6287,Public,35.50344,-82.52405,124563
Ingles Market,140 Weaver Blvd,Weaverville,28787,828-645-2902,Public,35.702679,-82.566669,131995
EUHOME LEXINGTON,1900 Odell Owen Rd,Lexington,27295,888-758-4389,Public,35.803939,-80.292592,143144
SPEEDWAY HD DCFAST HOG,10049 Weddington Rd,Concord,28027,888-758-4389,Public,35.364433,-80.71057,143174
NORTH HILLS 201 PARK,201 Park at N Hills St,Raleigh,27609,888-758-4389,Public,35.836906,-78.63726,143180
EUHOME STATESVILLE,567 Mocksville Hwy,Statesville,28625,888-758-4389,Public,35.808683,-80.810922,143211
WHOLE FOODS MKT HUNTERSVILLE 2,9129 Sam Furr Rd,Huntersville,28078,888-758-4389,Public,35.443676,-80.871495,143294
RIDING HIGH H-D DCFAST HOG,3036 NC Hwy 68,High Point,27265,888-758-4389,Public,36.062581,-79.959277,143311
EUHOME MADISON OFFICE,4626 NC-704,Madison,27025,888-758-4389,Public,36.379565,-79.947818,143340
TOBACCOROADHD DCFAST HOG,1126 S Saunders St,Raleigh,27603,888-758-4389,Public,35.764973,-78.64961,143347
MONTFORD PARK EV CHARGER 01,4701 Park Rd,Charlotte,28209,888-758-4389,Public,35.1668,-80.849396,143533
MODERN TOYOTA STATION 2,3178 Peters Creek Pkwy,Winston-Salem,27127,888-758-4389,Public,36.045755,-80.261723,143587
MetLife - Cary,201 MetLife Way,Cary,27513,,Private,35.830019,-78.799133,143810
MetLife - Charlotte,11225 N Community House Rd,Charlotte,28277,,Private,35.055125,-80.835756,143811
PC MUSUEM STATION 1,309 N Main St,Roxboro,27573,888-758-4389,Public,36.39612,-78.98161,143818
SD3#1 LEVINE 1,2820 Campus Ridge Rd,Matthews,28105,888-758-4389,Public,35.105824,-80.69647,144981
BLOWING ROCK BROCKOUTLET2,278 Shoppes on the Parkway Rd,Blowing Rock,28605,888-758-4389,Public,36.139992,-81.670816,145085
WF EV STATIONS TOWN HALL EV2,301 Brooks St,Wake Forest,27587,888-758-4389,Public,35.976385,-78.508178,145218
WF EV STATIONS TOWN HALL EV1,317 Brooks St,Wake Forest,27587,888-758-4389,Public,35.97614,-78.508776,145219
720 GARAGE STATION 03,621 S Poplar St,Charlotte,28202,888-758-4389,Public,35.223964,-80.850699,145223
720 GARAGE STATION 01,720 S Church St,Charlotte,28202,888-758-4389,Public,35.223952,-80.850715,145224
Mills Rentals,201 Carr St,Carrboro,27510,919-967-0045,Public - Credit card at all times,35.909422,-79.071185,145473
Mooresville Ford,151 E Plaza Dr,Mooresville,28115,704-664-1300,Public,35.589615,-80.834215,145491
WFM - SOUTH EAST ASHEVILLE,14 S Tunnel Rd,Asheville,28805,888-758-4389,Public,35.582481,-82.523562,146880
COC CORNING OPT 4,4200 Corning Pl,Charlotte,28216,888-758-4389,Public,35.33055,-80.938725,146881
SAS Institute Inc - A,920 SAS Campus Dr,Cary,27513,,Private,35.81617,-78.747624,146978
TOWN OF CARY DT DECK P5,113 Walnut St,Cary,27511,888-758-4389,Public,35.783205,-78.779345,147303
City of Raleigh - Moore Square Deck,233 S Wilmington St,Raleigh,27601,919-996-3030,Public,35.777463,-78.637505,147315
Skyland Exchange,12 Sky Exchange Drive,Asheville,28803,888-998-2546,Public,35.52993,-82.609809,147454
ACCESSO SERVICE EVARC 252,2605 Meridian Pkwy,Durham,27713,888-758-4389,Public,35.91207,-78.903574,147472
ACCESSO SERVICE EVARC 253,2600 Meridian Pkwy,Durham,27713,888-758-4389,Public,35.913395,-78.90265,147473
CAPE HATTERAS AVON DC FAST,41001 NC-12,Avon,27915,888-758-4389,Public,35.34699,-75.503559,147587
Bob Barker Company,134 North Main Street,Fuquay Varina,27526,800-663-5633,Public,35.586162,-78.79956,148553
Barrier Island Station,"1245 Duck Road
Bldg 200",Duck,27949,800-663-5633,Public,36.174915,-75.755662,148596
Homewood Suites Wilmington Mayfaire,6732 Swan Mill Road,Wilmington,28405,800-663-5633,Public,34.238094,-77.832522,148761
Veterans Park Apartments,"161 Halyburton Memorial Parkway
Building 157",Wilmington,28412,800-663-5633,Public,34.096196,-77.918876,148762
CENTRAL EMC HQ DCFC STATION 1,8038 Moncure Pittsboro Rd,Moncure,27559,888-758-4389,Public,35.623202,-79.088471,149225
Sheetz - Tesla Supercharger,619 Ruin Creek Road,Henderson,27536,877-798-3752,Public,36.329091,-78.44779,149314
Kill Devil Hills - Tesla Supercharger,2012 S Croatan Hwy,Kill Devil Hills,27948,877-798-3752,Public,35.993182,-75.651504,149319
Sheetz - Tesla Supercharger,2905 Rockford Street,Mt Airy,27030,877-798-3752,Public,36.458854,-80.636672,149335
Deacon Jones Nissan,3305 McLain St,Goldsboro,27534,,Public - Call ahead,35.368612,-77.929719,149475
Deacon Jones Nissan,3305 McLain St,Goldsboro,27534,,Private,35.368612,-77.929719,149489
MAIN STREET STATION 1,100 E Main St,Wilkesboro,28697,888-758-4389,Public,36.148705,-81.151412,149525
COREV CITY CENTER 2,429 S Wilmington Street,Raleigh,27601,888-758-4389,Public,35.774316,-78.638077,149634
BLOC83 TOWER 1 STATION 1,607 W Morgan Street,Raleigh,27603,888-758-4389,Public,35.780115,-78.648556,149667
WISTERIA COFFEE WISTERIA COFFEE,537 S Main St,King,27021,888-758-4389,Public,36.27016,-80.36066,149707
Toringdon Market - Tesla Supercharger,3429 Toringdon Way,Charlotte,28277,877-798-3752,Public,35.069256,-80.842023,150209
Sheetz - Tesla Supercharger,1700 East Market Street,Smithfield,27577,877-798-3752,Public,35.504972,-78.325441,150227
"CHARLOTTE, NC DISCOVERY 1",315 N Church St,Charlotte,28202,888-758-4389,Public,35.230311,-80.841356,150271
BMW Asheville,31 Skyland Inn Dr,Arden,28704,,Private,35.481309,-82.553588,150279
BMW Asheville,31 Skyland Inn Dr,Arden,28704,,Private,35.481309,-82.553588,150280
COREV MOORE SQUARE 1,233 S Wilmington Street,Raleigh,27601,888-758-4389,Public,35.777156,-78.6377,150317
Smithfield's Chicken 'N Bar-B-Q Market Street - Tesla Destination,7300 Market St,Wilmington,28405,910-686-4175  877-798-3752,Public,34.274394,-77.81613,150553
Smithfield's Chicken 'N Bar-B-Q-Dunn - Tesla Destination,2102 W Cumberland St,Dunn,28334,910-892-2693  877-798-3752,Public,35.321249,-78.635358,150554
WB OFFICE 1 PD DC 1,9825 US HWY 74 E,Lilesville,28091,888-758-4389,Public,34.951946,-79.906958,152049
PEMBROKE HQ CP2,8344 Fayetteville Rd,Raeford,28376,888-758-4389,Public,35.031247,-79.119196,152098
SNOW HILL SNOW HILL,34 N. Perry Dr,Snow Hill,28580,888-758-4389,Public,35.456219,-77.691922,152346
NC STATE CBC PARKING DEC,William Moore Dr,Raleigh,27606,888-758-4389,Public,35.797681,-78.70632,152410
NC STATE RESEARCH IV,909 Capability Dr,Raleigh,27606,888-758-4389,Public,35.772503,-78.681099,152411
NC STATE OVAL WEST DECK,Partners Way,Raleigh,27606,888-758-4389,Public,35.771109,-78.67638,152412
NC STATE PARTNERS II,840 Main Campus Dr,Raleigh,27606,888-758-4389,Public,35.775484,-78.675918,152413
NC STATE PARTNERS I,1017 Main Campus Dr,Raleigh,27606,888-758-4389,Public,35.77042,-78.677132,152414
NC STATE DAN ALLEN DR 01,110 Dan Allen Dr,Raleigh,27607,888-758-4389,Public,35.787383,-78.675611,152415
NC STATE COLISEUM 01,Cates Ave,Raleigh,27606,888-758-4389,Public,35.782117,-78.667907,152416
PEMBROKE HQ PM 1,6090 NC-711,Pembroke,28372,888-758-4389,Public,34.653101,-79.153324,152533
BLUERIDGEENERGY CORP HQ LEVEL 2,1216 Blowing Rock Blvd,Lenoir,28645,888-758-4389,Public,35.9339,-81.52959,152882
BEMC BOARDMAN,1029 Old Boardman Rd,Evergreen,28438,888-758-4389,Public,34.436977,-78.95024,152884
HENDRICK MINI HENDRICK MINI,7036 E Independence Blvd,Charlotte,28227,888-758-4389,Public,35.16482,-80.74191,153007
AEMC- AEMC HAMPTON IN,115 Hampton Dr,Edenton,27932,888-758-4389,Public,36.078542,-76.617002,153145
Harrah's Cherokee Casino and Resort location,777 Casino Drive,Cherokee,28719,800-663-5633,Public,35.469824,-83.299459,153246
Parkside Town Commons - Tesla Supercharger,7119 O'Kelly Chapel Road,Cary,27519,877-798-3752,Public,35.84359,-78.886368,153454
MILL CHARGER LRC CORDOBA,807 E Main St,Durham,27701,888-758-4389,Public,35.990618,-78.890272,153510
TCEMC TRI-COUNTY ELEC,4255 S U.S. 117 Alt Hwy,Dudley,28333,888-758-4389,Public,35.275194,-78.038723,154063
SPG ELVT BRIER CRK.,9921 Horizon Overlook Rd,Raleigh,27617,888-758-4389,Public,35.896455,-78.805318,154064
CENTRAL EMC HQ CEMCHQ,125 Wilson Rd,Sanford,27332,888-758-4389,Public,35.446423,-79.134325,154434
JOEMC SF HAMPTON INN,1248 NC-210,Sneads Ferry,28460,888-758-4389,Public,34.529071,-77.435023,155152
JOEMC JOEMC HQ,259 Western Blvd,Jacksonville,28546,888-758-4389,Public,34.75864,-77.382337,155153
REVUP1 MCDONALDS ASHBO,1415 E Dixie Dr,Asheboro,27203,888-758-4389,Public,35.699907,-79.787618,155154
McDonald's Store #27548,3494 Kildaire Farm Road,Cary,27518,888-998-2546,Public,35.704118,-78.795636,155208
ROANOKE EMC VISITOR LOT,518 NC-561,Aulander,27805,888-758-4389,Public,36.307209,-77.035876,155247
UPC VISITOR PARKING,1525 N Rocky River Rd,Monroe,28110,888-758-4389,Public,35.015972,-80.60669,155291
FPWC MARKETFAIR MALL,5084-5398 Campground Rd,Fayetteville,28314,888-758-4389,Public,35.068306,-78.969186,155429
CHATHAMELECTRIC BEV DISTRICT,130 Lorax Ln,Pittsboro,27312,888-758-4389,Public,35.711341,-79.15664,155546
SD3#1 PD2 STATION 1,1108 Charlottetowne Avenue,Charlotte,28204,888-758-4389,Public,35.214645,-80.829184,155547
Bank of America - Charlotte,150 N College St,Charlotte,28202,,Private,35.226655,-80.840749,155670
"Replacements, Ltd",1089 Knox Rd,Mcleansville,27301,336-697-3000,Public,36.062008,-79.681901,155682
LEXINGTON NC PARKWAY PLAZA#1,11 Plaza Pkwy,Lexington,27292,888-758-4389,Public,35.783118,-80.256998,156140
DURHAM COUNTY JUSTICE 1LEFT,510 S Dillard St,Durham,27701,888-758-4389,Public,35.992184,-78.90133,156319
DURHAM COUNTY SLIB LEFT,4515 S Alston Ave,Durham,27713,888-758-4389,Public,35.902015,-78.887916,156353
DURHAM COUNTY SLIB RIGHT,4505 S Alston Ave,Durham,27713,888-758-4389,Public,35.90196,-78.887922,156354
LEXINGTON NC PARKWAY PLAZA#2,11 Plaza Pkwy,Lexington,27292,888-758-4389,Public,35.78313,-80.256915,156356
Hendrick Chevrolet,127 Kentington Dr,Durham,27713,919-827-0913,Public,35.898567,-78.942932,157968
Orange County - Motor Pool Fueling Station,600 NC Highway 86 N,Hillsborough,27278,919-245-2625,Public,36.092325,-79.106383,158454
SREMC RAVENROCK,3299 Raven Rock Rd,Lillington,27546,888-758-4389,Public,35.463818,-78.914215,158536
ATHERTONGARAGE 2ND LVL STN 1,2100 South Blvd,Charlotte,28203,888-758-4389,Public,35.207005,-80.861607,158573
BEMC SUNSET BEACH,401-419 State Rd 1172,Sunset Beach,28468,888-758-4389,Public,33.870296,-78.507535,162526
Bessemer City NC,132 W Virginia Ave,Bessemer City,28016,855-900-7584,Public,35.285187,-81.285203,163317
Oxford Gateway Apartments LLC station location,Libby Way,Charlotte,28213,800-663-5633,Public,35.286612,-80.758519,163400
BEMC BRUNSWICKFOREST,1210 Dickinson Dr,Leland,28451,888-758-4389,Public,34.201645,-78.04511,163411
EPA-RTP N. SURFACE LOT,109 T.W. Alexander Drive,Research Triangle Park,27711,888-758-4389,Public,35.883498,-78.872654,163607
Park & Market,121 St Albans Drive,Raleigh,27609,866-816-7584,Public,35.837988,-78.638219,163963
City of Conover,501 1st Ave S,Conover,28613,866-816-7584,Public,35.702669,-81.220209,163964
3800 GLENWOOD STATION 1,3701 National Dr PARKING DECK,Raleigh,27612,888-758-4389,Public,35.831954,-78.66663,164031
PEMBROKE HQ HI-EXPRESS 1,2521 Two Bale Ln,Fayetteville,28304,888-758-4389,Public,35.025913,-79.058483,164130
401 Oberlin Apartments,401 Oberlin Road,Raleigh,27605,888-998-2546,Public,35.790001,-78.663673,164409
Audi Northlake North Side,10831 Northlake Auto Plaza Blvd,Charlotte,28269,888-998-2546,Public,35.36764,-80.833319,164482
Audi Northlake South Side,10831 Northlake Auto Plaza Blvd,Charlotte,28269,888-998-2546,Public,35.367969,-80.833713,164484
MINI OF RALEIGH CUST SERVICE,5600 Capital Blvd,Raleigh,27616,888-758-4389,Public,35.86181,-78.579836,164525
GREENSBORO EV ARC 257,305W E Washington St,Greensboro,27401,888-758-4389,Public,36.070008,-79.793001,164527
New River Light & Power Co,220 Winklers Creek Rd,Boone,28607,828-264-3671,Public,36.204401,-81.669919,164556
Town of Boone Public Parking,115 N Depot St,Boone,28607,828-268-6200,Public,36.219181,-81.683769,164557
Bodegas Kitchen and Wine Bar,488 Main St W,Banner Elk,28604,800-455-1981,Public,36.162028,-81.878557,164558
Oconaluftee Visitor Center,1194 Newfound Gap Rd,Cherokee,28719,,Public,35.51307899,-83.30660868,164621
DUKEPTS H LOT ANDERSON,Yearby Ave at Anderson St,Durham,27705,888-758-4389,Public,36.005122,-78.930204,164836
SYEMC CIRCLE K FAST,2372 State Rd 1001,Dobson,27017,888-758-4389,Public,36.395182,-80.785255,165069
EVERY CHARGING NEW BERN,145 New Bern St,Charlotte,28209,888-758-4389,Public,35.199345,-80.867961,165174
ECU HSC BRODY LOT,600 Moye Blvd,Greenville,27834,888-758-4389,Public,35.610961,-77.402468,165175
ECU COLLEGE HILL,28884 College Hill Dr,Greenville,27858,888-758-4389,Public,35.602351,-77.361964,165200
EMERALD ISLE EMERALD ISLE,216 Islander Dr,Emerald Isle,28594,888-758-4389,Public,34.659595,-77.056016,165271
MUNICIPAL COMPL SWANSBORO,601 W Corbett Ave Town Hall,Swansboro,28584,888-758-4389,Public,34.689331,-77.122579,165500
Duke Energy,6301 Wilkinson Blvd,Charlotte,28214,,Private,35.234528,-80.949512,165799
Duke Energy,805 N Pinehurst St,Aberdeen,28315,,Private,35.160545,-79.416622,165800
Duke Energy,100 E Davie St,Raleigh,27601,,Private,35.775181,-78.637626,165801
Winston-Salem,414 N. Patterson Ave.,Winston-Salem,27101,855-885-9571,Public,36.09908,-80.241009,166213
Mecklenburg County - Land Use & Environmental Services Agency,2145 Suttle Ave,Charlotte,28208,,Private,35.223591,-80.871421,166359
Marine Chevrolet Cadillac,1408 Western Blvd,Jacksonville,28546,910-455-2121,Public,34.789404,-77.402415,166781
"Sheetz 504 (Rocky Mount, NC)",157 N Old Carriage Road,Rocky Mount,27804,833-632-2778,Public,35.97208,-77.89565,166835
Ingles Market,625 W Henderson St,Marion,28752,828-652-8588,Public,35.675106,-82.012496,166840
HUNTERSVILLE MARK OIL L3,101 Statesville Rd,Huntersville,28078,888-758-4389,Public,35.409541,-80.85426,166854
HALIFAX EMC HALIFAX EMC DC1,23945 NC-561,Enfield,27823,888-758-4389,Public,36.268879,-77.723942,166882
Smithfield's Chicken 'N Bar-B-Q-Nashville - Tesla Destination,1169 Eastern Ave,Nashville,27856,252-459-0092  877-798-3752,Public,35.970521,-77.938648,166934
Smithfield's Chicken 'N Bar-B-Q-Rocky Mount - Tesla Destination,670 N Wesleyan Blvd,Rocky Mount,27804,252-937-3032  877-798-3752,Public,35.963082,-77.820369,166935
Smithfield's Chicken 'N Bar-B-Q-Burlington - Tesla Destination,1372 Tiki Ln,Burlington,27215,336-586-9333  877-798-3752,Public,36.067024,-79.513077,166936
Holiday Inn Express & Suites Greensboro East - Tesla Destination,3111 Cedar Park Rd,Greensboro,27405,1-888-480-0427  877-798-3752,Public,36.053609,-79.733876,166937
"Target 0961 - Cary, NC",2021 Walnut Street,Cary,27518,833-632-2778,Public,35.7586,-78.73923,166988
"Walmart 5254 - Wake Forest, NC",2114 S. Main St.,Wake Forest,27587,833-632-2778,Public,35.95154,-78.53398,166989
Hyatt Place - Raleigh / Cary,710 Corporate Center Dr,Raleigh,27607,919-233-2205,Public,35.791673,-78.738308,167100
UNC Rex Healthcare Parking Deck,4420 Lake Boone Trail,Raleigh,27607,919-784-3100,Public,35.816952,-78.70409,167101
UNC Rex Healthcare Heart and Vascular Parking Deck,4420 Lake Boone Trail,Raleigh,27607,919-784-3100,Public,35.81987,-78.702876,167102
Hilton Raleigh North Hills,3415 Wake Forest Rd,Raleigh,27609,919-872-2323,Public,35.829812,-78.619724,167103
Hampton Inn & Suites Raleigh Midtown,1229 Wake Towne Dr,Raleigh,27609,919-831-4700,Public,35.822,-78.618794,167104
Rocky Mount Mills,1151 Falls Rd,Rocky Mount,27804,252-969-0909,Public,35.958435,-77.801787,167114
Rocky Mount High School,1400 Bethlehem Rd,Rocky Mount,27803,252-937-9050,Public,35.939546,-77.835925,167115
Town of Warrenton - Market Street,117 W Market St,Warrenton,27589,252-257-1122,Public,36.397918,-78.155927,167116
The University of North Carolina at Greensboro - McIver Street Parking Deck,132 McIver St,Greensboro,27403,336-334-5681,Public,36.071448,-79.806876,167118
The University of North Carolina at Greensboro - Oakland Street Parking Deck,690 Forest St,Greensboro,27403,336-334-5681,Public,36.064629,-79.810548,167119
Wake Forest Baptist Health - Parking Deck C,1 Medical Center Blvd,Winston-Salem,27103,336-716-2011,Public,36.089912,-80.270798,167121
Smithfield's Chicken 'N Bar-B-Q - Tesla Supercharger,4483 U.S. Highway 70,Kinston,28504,877-798-3752,Public,35.26058,-77.649684,167124
"Walmart 1155 (Lumberton, NC)",5070 Fayetteville Road,Lumberton,28358,833-632-2778,Public,34.66506,-79.00666,167147
TOWN OF CARY TOWN HALL-PWH,228 Ambassador Loop Page-Walker Hotel,Cary,27513,888-758-4389,Public,35.789215,-78.77882,167160
222 GLENWOOD STATION #1,222 Glenwood Ave,Raleigh,27603,888-758-4389,Public,35.783534,-78.647169,167161
"Sam's Club 6452 (Asheville, NC)",645 Patton Ave.,Asheville,28806,833-632-2778,Public,35.59119,-82.5816,167166
Carolina Premium Outlets,1025 Outlet Center Drive,Smithfield,27577,833-632-2778,Public,35.50811,-78.31505,167212
"Walmart 5320 - Greensboro, NC",121 W. Elmsley Street,Greensboro,27406,833-632-2778,Public,36.00315,-79.79819,167269
Smithfield's Chicken 'N Bar-B-Q-Garner - Tesla Destination,5180 NC Hwy 42 W,Garner,27529,919-773-0774  877-798-3752,Public,35.608592,-78.562481,167288
UNCW-1 UNCW2 CEN DECK,4941 Riegel Rd,Wilmington,28403,888-758-4389,Public,34.22257,-77.871666,167352
DoubleTree by Hilton Hotel Rocky Mount,651 N Winstead Ave,Rocky Mount,27804,252-937-6888,Public,35.97332,-77.846846,167455
LEXINGTON NC HAMPTON INN,1245 Fairview Dr,Lexington,27292,888-758-4389,Public,35.78651,-80.25969,167514
Aldon at Powell and Broad,141 Stobhill Lane,Fuquay Varina,27526,800-663-5633,Public,35.613739,-78.811745,167642
CLASSIC VW OUTDOOR STATION,4417 Wilkinson Blvd,Gastonia,28056,888-758-4389,Public,35.256256,-81.102747,168076
"SHEETZ 647- Hillsborough, NC",1990 NC 86 S,Hillsborough,27278,833-632-2778,Public,36.05707,-79.08008,168151
"Walmart 2134 - Charlotte, NC",7735 North Tryon Street,Charlotte,28262,833-632-2778,Public,35.29555,-80.75655,168271
CITY OF WILM RIVER PLACE 1,220 N Water St,Wilmington,28401,888-758-4389,Public,34.238329,-77.950044,168526
CITY OF WILM RIVER PLACE 2,243 N Front St,Wilmington,28401,888-758-4389,Public,34.238197,-77.94942,168527
Beach House Vacation Rental - Tesla Destination,131 Spindrift Lane,Duck,27949,  877-798-3752,Public,36.187212,-75.753785,168609
Doubletree by Hilton Asheville-Biltmore - Tesla Destination,115 Hendersonville Rd,Asheville,28803,  877-798-3752,Public,35.5625934,-82.542149,168739
Hilton Charlotte University Place - Tesla Destination,8629 JM Keynes Dr,Charlotte,28262,704-547-7444  877-798-3752,Public,35.3083,-80.750663,168836
Homewood Suites by Hilton Raleigh Cary I-40 - Tesla Destination,555 Crossroads Blvd,Cary,27518,  877-798-3752,Public,35.758438,-78.732543,168857
Kilmarlic Golf Club - Tesla Destination,215 West Side Ln,Powells Point,27966,  877-798-3752,Public,36.11618,-75.842797,168909
Shadow Springs Vineyard - Tesla Destination,55432 Crater Rd,Hamptonville,27020,336-468-5000  877-798-3752,Public,36.096502,-80.85126,169098
SpringHill Suites Charlotte Southwest - Tesla Destination,3950 Arco Corporate Dr,Charlotte,28273,704-702-0500  877-798-3752,Public,35.151587,-80.95232,169124
The Factory - Franklin - Tesla Destination,1024 Georgia Road,Franklin,28734,  877-798-3752,Public,35.1597936,-83.3892163,169175
The Park on Main - Tesla Destination,205 Main St,Highlands,28741,800-221-5078  877-798-3752,Public,35.053664,-83.200657,169187
Piedmont Triad International Airport,1000 A Ted Johnson Pkwy,Greensboro,27409,336-665-5631,Private,36.105313,-79.938316,169357
64 CHARGER EV 1,60 Mills Gap Rd,Asheville,28803,888-758-4389,Public,35.498718,-82.515316,169403
North Hills,4351 The Cir at N Hills St,Raleigh,27609,919-881-1146,Public,35.83788,-78.642,169442
Midtown Plaza,305 Church at North Hills St,Raleigh,27609,919-881-1146,Public,35.834809,-78.635398,169443
Legacy at Firetower,611 Legacy Ct,Winterville,28590,800-663-5633,Public,35.5521,-77.370754,169939
Wendover Axcess Apartments,1501 CH Brandonshire Court,Greensboro,27409,888-998-2546,Public,36.051395,-79.909511,169991
Sheetz - Tesla Supercharger,2350 S Main St,Lexington,27292,877-798-3752,Public,35.800165,-80.288557,170080
Walmart 2256 Henderson,200 N Cooper Drive,Henderson,27536,833-632-2778,Public,36.33467,-78.44216,170324
AB Tech - Cash Point Lot,340 Victoria Road,Asheville,28801,855-900-7584,Public,35.570074,-82.553755,170903
GRANDFATHER MTN ENTRANCE GATE,2050 Blowing Rock Hwy,Linville,28646,888-758-4389,Public,36.084764,-81.845793,171283
GRANDFATHER MTN NATURE MUSEUM,1104 Grandfather Mountain Entrance Rd,Linville,28646,888-758-4389,Public,36.090218,-81.834969,171284
Sheetz - Tesla Supercharger,1001 North Spence Avenue,Goldsboro,27534,877-798-3752,Public,35.386459,-77.948452,171466
BSMG NORTH DECK 2,305 Jackson St,Durham,27701,888-758-4389,Public,35.994797,-78.90499,171531
FAYETTEVILLE NC FRANKLIN 1,208 Franklin St,Fayetteville,28301,888-758-4389,Public,35.052294,-78.880344,171673
BSMG EAST DECK 1,250 South Mangum Street,Durham,27701,888-758-4389,Public,35.992715,-78.902072,171801
MEBANE TANGER EV 2,4000 Arrowhead Blvd,Mebane,27302,888-758-4389,Public,36.074872,-79.267746,171823
"CHARLOTTE, NC HUNTERSVILLE 02",10300 Compass St,Huntersville,28078,888-758-4389,Public,35.413632,-80.857176,171833
CLT AIRPORT LEVEL6_ST1,5501 R C Josh Birmingham Pkwy,Charlotte,28208,888-758-4389,Public,35.221642,-80.945506,171915
CLT AIRPORT LEVEL6_ST3,5501 R C Josh Birmingham Pkwy,Charlotte,28208,888-758-4389,Public,35.22165,-80.945388,171916
CLT AIRPORT LEVEL5_ST3,5501 R C Josh Birmingham Pkwy,Charlotte,28208,888-758-4389,Public,35.221817,-80.945334,171917
CLT AIRPORT LEVEL6_ST2,5501 R C Josh Birmingham Pkwy,Charlotte,28208,888-758-4389,Public,35.221624,-80.945442,171918
CLT AIRPORT LEVEL5_ST2,5501 R C Josh Birmingham Pkwy,Charlotte,28208,888-758-4389,Public,35.221782,-80.945409,171919
CLT AIRPORT LEVEL5_ST1,5501 R C Josh Birmingham Pkwy,Charlotte,28208,888-758-4389,Public,35.221791,-80.945474,171922
"CHARLOTTE, NC MALLARD CK 01",1712 J N Pease Pl,Charlotte,28262,888-758-4389,Public,35.32367,-80.773012,171959
DUKEPTS SDG 5,302 Science Drive Science Drive Garage,Durham,27708,888-758-4389,Public,35.9961,-78.9474,171995
DUKEPTS SDG 6,302 Science Drive Science Drive Garage,Durham,27708,888-758-4389,Public,35.996125,-78.947466,171996
DUKEPTS SDG 4,302 Science Drive Science Drive Garage,Durham,27708,888-758-4389,Public,35.996186,-78.947271,171997
DUKEPTS SDG 3,302 Science Drive Science Drive Garage,Durham,27708,888-758-4389,Public,35.996222,-78.947248,171998
DUKEPTS SDG 7,302 Science Drive Science Drive Garage,Durham,27708,888-758-4389,Public,35.996042,-78.947512,171999
"CHARLOTTE, NC CATS I-485 1",9512 South Blvd,Charlotte,28273,888-758-4389,Public,35.10683,-80.883225,172490
"CHARLOTTE, NC CATS I-485 2",9512 South Blvd,Charlotte,28273,888-758-4389,Public,35.107013,-80.883413,172491
DUKEPTS PG2 LEVEL 3,2300-2314 Erwin Rd,Durham,27705,888-758-4389,Public,36.008353,-78.937789,172558
"CHARLOTTE, NC CMGC PRKG L1-3",232 S Davidson St,Charlotte,28202,888-758-4389,Public,35.222173,-80.839739,172640
SPECTRUM BLDG B1,300 S Tryon St,Charlotte,28202,888-758-4389,Public,35.225683,-80.84576,172905
SPECTRUM BLDG B2 5,300 S Tryon St,Charlotte,28202,888-758-4389,Public,35.225686,-80.845775,172906
SPECTRUM BLDG B2 3,300 S Tryon St,Charlotte,28202,888-758-4389,Public,35.225675,-80.845784,172907
SPECTRUM BLDG B2 6,300 S Tryon St,Charlotte,28202,888-758-4389,Public,35.225674,-80.845771,172908
SPECTRUM BLDG B2 4,300 S Tryon St,Charlotte,28202,888-758-4389,Public,35.225671,-80.84576,172909
SPECTRUM BLDG B2 2,300 S Tryon St,Charlotte,28202,888-758-4389,Public,35.225662,-80.845792,172910
CLT AIRPORT BUS VALET 01,5601 Wilkinson Blvd,Charlotte,28208,888-758-4389,Public,35.233524,-80.934585,173008
CLT AIRPORT BUS VALET 02,5601 Wilkinson Blvd,Charlotte,28208,888-758-4389,Public,35.233223,-80.934266,173009
REVUP1 SOLAR POINT 2,Zoo Pkwy,Asheboro,27205,888-758-4389,Public,35.627194,-79.766719,173148
DILLON STATION STATION2,223 S West St,Raleigh,27603,888-758-4389,Public,35.777964,-78.645676,173315
BUILDINGB1 EV STATION 02,800 Beaty St,Davidson,28036,888-758-4389,Public,35.510877,-80.850078,173377
HIGHWOODS RTP 751 CORP EV 2,751 Corporate Center Drive,Raleigh,27607,888-758-4389,Public,35.793383,-78.742278,173468
FLOWJLR SERVICE 1,1205 Bridford Pkwy,Greensboro,27407,888-758-4389,Public,36.058998,-79.90228,173529
FLOWJLR DC FAST 02,1205 Bridford Pkwy,Greensboro,27407,888-758-4389,Public,36.059876,-79.902581,173530
PARK CENTRAL PC STATION 1,200 Park at N Hills St,Raleigh,27609,888-758-4389,Public,35.835779,-78.637277,173582
WHOLE FOODS MKT CHARLOTTE 02,6610 Fairview Rd,Charlotte,28210,888-758-4389,Public,35.147649,-80.82956,173716
WHOLE FOODS MKT RALEIGH NRL 2,8710 Six Forks Rd,Raleigh,27615,888-758-4389,Public,35.8994,-78.64995,173720
HIGHWOODS RTP CENTREGREEN 3,5000 Centregreen Way,Cary,27513,888-758-4389,Public,35.826449,-78.794705,173723
HIGHWOODS RTP CENTREGREEN 2,5000 Centregreen Way,Cary,27513,888-758-4389,Public,35.826509,-78.794769,173724
HENDRICK SBLVD SERVICE 1,8901 South Blvd,Charlotte,28273,888-758-4389,Public,35.116214,-80.881659,173741
HENDRICKCONCORD SHOP01,7650 Bruton Smith Blvd,Concord,28027,888-758-4389,Public,35.364568,-80.704816,173868
CROWN HONDA SHOP 01,3633 W Wendover Ave,Greensboro,27407,888-758-4389,Public,36.05918,-79.869536,174133
WHOLE FOODS MKT HUNTERSVILLE 1,9129 Sam Furr Rd,Huntersville,28078,888-758-4389,Public,35.443649,-80.871523,174222
MODERN TOYOTA STATION 1,3178 Peters Creek Pkwy,Winston-Salem,27127,888-758-4389,Public,36.045764,-80.261733,174335
BLOWING ROCK BROCKOUTLET1,278 Shoppes on the Parkway Rd,Blowing Rock,28605,888-758-4389,Public,36.140019,-81.670725,174407
720 GARAGE STATION 04,621 S Poplar St,Charlotte,28202,888-758-4389,Public,35.223935,-80.850547,174435
720 GARAGE STATION 02,720 S Church St,Charlotte,28202,888-758-4389,Public,35.223813,-80.850877,174436
COC CORNING OPT 3,4200 Corning Pl,Charlotte,28216,888-758-4389,Public,35.330548,-80.93871,174539
COC CORNING OPT 2,4200 Corning Pl,Charlotte,28216,888-758-4389,Public,35.330545,-80.938684,174540
COC CORNING OPT 1,4200 Corning Pl,Charlotte,28216,888-758-4389,Public,35.330536,-80.93863,174541
TOWN OF CARY DT DECK P3 WEST,113 Walnut St,Cary,27511,888-758-4389,Public,35.785283,-78.779283,174577
TOWN OF CARY DT DECK P2 (1),113 Walnut St,Cary,27511,888-758-4389,Public,35.785448,-78.779412,174578
TOWN OF CARY DT DECK P6,113 Walnut St,Cary,27511,888-758-4389,Public,35.785228,-78.779495,174579
TOWN OF CARY DT DECK P3 EAST,113 Walnut St,Cary,27511,888-758-4389,Public,35.783205,-78.77927,174581
TOWN OF CARY DT DECK P2 (2),113 Walnut St,Cary,27511,888-758-4389,Public,35.785387,-78.779701,174582
PEMBROKE HQ CP1,8344 Fayetteville Rd,Raeford,28376,888-758-4389,Public,35.031242,-79.11927,174909
NC STATE PARTNERS WY DCK,Partners Way,Raleigh,27606,888-758-4389,Public,35.773777,-78.674447,174951
LRC-GB LRC-GB,807 E Main St,Durham,27701,888-758-4389,Public,35.990683,-78.890352,175128
"CHARLOTTE, NC 250 EV ARC",932 Seigle Ave,Charlotte,28205,888-758-4389,Public,35.226344,-80.823656,175420
UPC EMP. PARKING,1525 N Rocky River Rd,Monroe,28110,888-758-4389,Public,35.015476,-80.60731,175508
DURHAM COUNTY JUSTICE 1RIGHT,510 S Dillard St,Durham,27701,888-758-4389,Public,35.992141,-78.901309,175667
DURHAM COUNTY JUSTICE 3LEFT,510 S Dillard St,Durham,27701,888-758-4389,Public,35.992175,-78.901393,175668
DURHAM COUNTY JUSTICE 3RIGHT,510 S Dillard St,Durham,27701,888-758-4389,Public,35.992184,-78.901329,175669
DURHAM COUNTY NLIB LEFT,221 Milton Rd,Durham,27712,888-758-4389,Public,36.088806,-78.914461,175681
BROADSTONE DRM LEVEL 2 ADA,600 Willard St,Durham,27701,888-758-4389,Public,35.993779,-78.908236,175791
BROADSTONE DRM GUEST 1 ADA,600 Willard St,Durham,27701,888-758-4389,Public,35.993798,-78.908226,175792
3800 GLENWOOD STATION 3,3701 National Dr PARKING DECK,Raleigh,27612,888-758-4389,Public,35.831995,-78.66662,180722
3800 GLENWOOD STATION 2,3701 National Dr PARKING DECK,Raleigh,27612,888-758-4389,Public,35.83196,-78.666666,180723
3800 GLENWOOD STATION 4,3701 National Dr PARKING DECK,Raleigh,27612,888-758-4389,Public,35.83197,-78.666625,180724
HUNTERSVILLE MARK OIL L2,101 Statesville Rd,Huntersville,28078,888-758-4389,Public,35.409603,-80.854126,181247
PUBLIC STATIONS WEST,100 Sierra Nevada Way,Fletcher,28732,888-758-4389,Public,35.430402,-82.548957,182644
JLR CARY LEITH 3 - BAY1,1000 Autopark Blvd,Cary,27511,888-758-4389,Public,35.739528,-78.815519,182692
SENTRYONE LAB,4001 Yancey Rd,Charlotte,28217,888-758-4389,Public,35.186248,-80.878874,182989
"PNC ARENA PNC VIP 36,37",1400 Edwards Mill Rd,Raleigh,27607,888-758-4389,Public,35.802486,-78.72239,183170
"PNC ARENA PNC VIP 34,35",1400 Edwards Mill Rd,Raleigh,27607,888-758-4389,Public,35.802444,-78.72236,183171
"PNC ARENA PNC VIP 32,33",1400 Edwards Mill Rd,Raleigh,27607,888-758-4389,Public,35.802406,-78.72232,183172
"CHARLOTTE, NC FIRE HQ 4",500 Dalton Ave,Charlotte,28206,888-758-4389,Public,35.240489,-80.836201,183464
"CHARLOTTE, NC FIRE HQ 3",500 Dalton Ave,Charlotte,28206,888-758-4389,Public,35.240491,-80.836265,183465
"CHARLOTTE, NC FIRE HQ 1",500 Dalton Ave,Charlotte,28206,888-758-4389,Public,35.240351,-80.835981,183466
"CHARLOTTE, NC FIRE HQ 2",1210 Statesville Ave,Charlotte,28206,888-758-4389,Public,35.240493,-80.836324,183467
Sheetz - Tesla Supercharger,1237 Mebane Oaks Road,Mebane,27302,877-798-3752,Public,36.069862,-79.270016,183563
Town of Apex - Fleet,323 N Salem St,Apex,27502,,Private,35.734544,-78.847516,183787
Van Alen Office LLC,555 South Mangum Street,Durham,27701,866-816-7584,Public,35.990454,-78.901642,184035
HHS / NIH - North Carolina,109 TW Alexander Dr,Durham,27713,,Private - Government only,35.882547,-78.873877,184236
VISN 6/FAYETTEVILLE NC VAMC,2300 Ramsey St,Fayetteville,28301,,Private - Government only,35.089351,-78.877187,184237
FHWA - NC Division Office,310 New Bern Ave,Raleigh,27601,,Private - Government only,35.779962,-78.633881,184325
MCAS Cherry Point - C Farm,Bld 1244 Curtis Rd,Cherry Point,28532,,Private - Government only,34.883318,-76.9062,184434
SSA North Carolina,3604 Louis Stephens Dr,Morrisville,27560,,Private,35.877576,-78.88564,184435
EPA Research Triangle Park,505 TW Alexander Dr,Durham,27713,,Private - Government only,35.921852,-78.840123,184630
FCC Butner,Old Nc Hwy 75,Butner,27509,,Private - Government only,36.137535,-78.813803,184762
Locomotive / Rail eq. Fuel station,6280 Sunny Point Rd SE,SOUTHPORT,28461,,Private - Government only,33.978703,-78.042162,184777
Installation Admin Fuel station,6280 Sunny Point Rd SE,SOUTHPORT,28461,,Private - Government only,33.8888,-78.042162,184778
COREV LETC EV 2,2300 Law Enforcement Drive,Raleigh,27610,888-758-4389,Public,35.718652,-78.502388,185335
COREV LETC EV 1,2300 Law enforcement dr,Raleigh,27610,888-758-4389,Public,35.71863,-78.502525,185336
"CHARLOTTE, NC SPRATT 1",537 Spratt St,Charlotte,28206,888-758-4389,Public,35.239909,-80.8381,185365
"CHARLOTTE, NC SPRATT 2",537 Spratt St,Charlotte,28206,888-758-4389,Public,35.23983,-80.838,185366
"CHARLOTTE, NC SPRATT 3",537 Spratt St,Charlotte,28206,888-758-4389,Public,35.239794,-80.83799,185367
FOUR COUNTY EMC MAD BOAR FCEMC,116 River Village Pl,Wallace,28466,888-758-4389,Public,34.756502,-77.948087,185370
Aviation Crossing,4555 McCrimmon Parkway,Morrisville,27560,800-663-5633,Public,35.833325,-78.812756,185444
LOFTS HAW RIVER HAW RIVER 1,100 E Main St,Haw River,27258,888-758-4389,Public,36.090704,-79.367223,185577
LOFTS HAW RIVER HAW RIVER 2,116 W Main St,Haw River,27258,888-758-4389,Public,36.089547,-79.367462,185578
UPC STONEBRIDGE,3612 Out of Bounds Drive,Monroe,28112,888-758-4389,Public,34.938809,-80.631384,185582
SURRY TEL STATION #1,819 E Atkins St,Dobson,27017,888-758-4389,Public,36.39276,-80.709357,186158
5000 Davis Drive,5000 Davis Drive,Research Triangle Park,27709,800-663-5633,Public,35.860964,-78.870741,186169
The Osprey at Lake Norman - 138 Village Club Dr,138 Village Club Drive,Mooresville,28117,888-998-2546,Public,35.53578,-80.866088,186784
Sheetz - Tesla Supercharger,10206 S Main St,Archdale,27263,877-798-3752,Public,35.899433,-79.946479,186873
Verizon - Charlotte,8921 Research Dr,Charlotte,28262,,Private,35.318383,-80.759513,187080
Asheville Exchange Apartments,105 Exchange Circle,Asheville,28806,888-998-2546,Public,35.52998,-82.60982,187097
Sheetz - Tesla Supercharger,3202 Sandy Ridge Road,Colfax,27235,877-798-3752,Public,36.095,-79.994693,187283
ROANOKE EMC DC FAST OASIS,10401 NC-903,Halifax,27839,888-758-4389,Public,36.366209,-77.674185,187349
NORTH TOWN HALL 02,124 Town Center Dr,Mills River,28759,888-758-4389,Public,35.384328,-82.549731,187636
NORTH TOWN HALL 01,124 Town Center Dr,Mills River,28759,888-758-4389,Public,35.384279,-82.549729,187637
UNION CHAPEL LEFT CHARGER,425 Hillsborough St,Chapel Hill,27514,888-758-4389,Public,35.920734,-79.053505,187661
RALEIGH STATION STATION 02,4005 Capital Hills Dr,Raleigh,27616,888-758-4389,Public,35.887839,-78.568953,187820
"Crossroads Center (Statesville, NC)",1000 Crossroads Dr,Statesville,28677,833-632-2778,Public,35.8101,-80.87331,187907
Bank of America - Private Bank,900 W Trade St,Charlotte,28202,,Private,35.234688,-80.851067,188029
Bank of America - Private Bank,13510 Ballantyne Corp Pl,Charlotte,28277,,Private,35.062011,-80.849483,188030
Link Apartments Montford I,1606 Abby Place,Charlotte,28209,855-900-7584,Public,35.168713,-80.849259,188122
Ingles Markets,722 Sullivan Rd,Statesville,28677,704-872-4039,Public,35.805445,-80.875061,188998
DELTEC HOMES DELTEC HOMES-1,69 Bingham Rd,Asheville,28806,888-758-4389,Public,35.602345,-82.5856,189251
DELTEC HOMES DELTEC HOMES-2,69 Bingham Rd,Asheville,28806,888-758-4389,Public,35.602357,-82.585544,189252
MB RALEIGH CAP CORNER,5607 Capital Blvd,Raleigh,27616,888-758-4389,Public,35.864118,-78.582751,189382
PIER 33 PD LEVEL G,901 Nutt St,Wilmington,28401,888-758-4389,Public,34.245413,-77.950948,189668
PIER 33 PD LEVEL 01,901 Nutt St,Wilmington,28401,888-758-4389,Public,34.245251,-77.950932,189669
Asheville Market - Tesla Supercharger,4 South Tunnel Road,Asheville,28805,877-798-3752,Public,35.58424,-82.523956,189688
ALLY FINANCIAL STATION 02,601 S Tryon St,Charlotte,28202,888-758-4389,Public,35.222807,-80.848816,189735
ALLY FINANCIAL STATION 03,601 S Tryon St,Charlotte,28202,888-758-4389,Public,35.222871,-80.848747,189736
ALLY FINANCIAL STATION 01,601 S Tryon St,Charlotte,28202,888-758-4389,Public,35.222739,-80.848889,189737
ADVANCE AUTO STATION 2,4200 Six Forks Rd,Raleigh,27609,888-758-4389,Public,35.836069,-78.639554,189787
SYEMC STATION1,110 Frank Comer Blvd,Dobson,27017,888-758-4389,Public,36.385414,-80.71906,189790
REVUP1 NC ZOO1,Zoo Pkwy,Asheboro,27205,888-758-4389,Public,35.630391,-79.765549,189924
Home2Suites Asheville Airport,390 New Airport Rd,Arden,28704,855-900-7584,Public,35.44667,-82.533952,189966
EUHOME STATESVILLE DC,308a Mocksville Hwy,Statesville,28625,888-758-4389,Public,35.810074,-80.828563,190089
EUHOME MOCKSVILLE DC,1440 Yadkinville Rd,Mocksville,27028,888-758-4389,Public,35.919155,-80.58476,190090
Albemarle City Hall,144 N 2nd  St,Albemarle,28001,800-663-5633,Public,35.35074,-80.197397,190142
North Carolina Medical Board,3127 Smoketree Ct,Raleigh,27604,,Private,35.820818,-78.606694,190217
Pure Power Contractors,2812 Gray Fox Rd,Monroe,28110,866-816-7584,Public,35.057777,-80.620233,190265
TOWNOFSPARTA SPARTA LEVEL 2,60 N Main St,Sparta,28675,888-758-4389,Public,36.506226,-81.12144,190666
BLUERIDGEENERGY WEST JEFFERSON2,203 E 1st St,West Jefferson,28694,888-758-4389,Public,36.402863,-81.490585,190667
BLUERIDGEENERGY BOONE DC FAST,2491 US-421 S,Boone,28607,888-758-4389,Public,36.223583,-81.63569,190668
AEMC-  MCDONALDS,105 Tanglewood Parkway,Elizabeth City,27909,888-758-4389,Public,36.29362,-76.29702,190732
Camden Carolinian,2600 Glenwood Ave,Raleigh,27608,888-998-2546,Public,35.81717,-78.659529,190916
Gateway Terrace - Tesla Supercharger,3219 Watkins Road,Durham,27707,877-798-3752,Public,35.953056,-78.991028,191099
Lake Norman State Park,759 State Park Rd,Troutman,28166,704-528-6350,Public,35.672746,-80.932449,191100
LEXINGTON NC WINDSTREAM,209 N State St,Lexington,27292,888-758-4389,Public,35.826254,-80.252675,191134
EVOLVE COS SURF CITY,206 Collegiate Drive,Hampstead,28443,888-758-4389,Public,34.449018,-77.604387,191144
LEXINGTON NC SOUTH MAIN #2,333 S Main St,Lexington,27292,888-758-4389,Public,35.821313,-80.256099,191154
LEXINGTON NC RAILROAD ST.,216 E 2nd Ave,Lexington,27292,888-758-4389,Public,35.820476,-80.253335,191156
LEXINGTON NC PARKWAYPLAZA L3,11 Plaza Pkwy,Lexington,27292,888-758-4389,Public,35.783093,-80.257089,191157
Food Lion Plaza - Tesla Supercharger,1605 East 11th Street,Siler City,27344,877-798-3752,Public,35.73496079,-79.44204162,191518
EMEMC HWY 33E EMEMC 1,679 NC-33,Tarboro,27886,888-758-4389,Public,35.86785,-77.5229,191544
ECU HSC STUDENT CTR,Unnamed Road,Greenville,27834,888-758-4389,Public,35.611529,-77.406991,191627
ECU PARKING DECK 2,502 9th St,Greenville,27858,888-758-4389,Public,35.606203,-77.369419,191628
ECU PARKING DECK 1,502 9th St,Greenville,27858,888-758-4389,Public,35.606206,-77.369405,191629
VOLVO BUILDING CT4021-01,2012 US-401,Fayetteville,28314,888-758-4389,Public,35.058952,-78.97257,191670
Northcrest Shopping Center - Tesla Supercharger,9841 Northlake Centre Parkway,Charlotte,28216,877-798-3752,Public,35.347264,-80.859183,191693
TEVA DEEP ROOTS MKT,600 N Eugene St,Greensboro,27401,888-758-4389,Public,36.079067,-79.793291,191766
SPECTRUM BLDG VANTAGE SOUTH 1,1220 S Tryon St,Charlotte,28203,888-758-4389,Public,35.219085,-80.853804,192588
SPECTRUM BLDG VANTAGE 3,1220 S Tryon St,Charlotte,28203,888-758-4389,Public,35.217775,-80.854145,192599
SPECTRUM BLDG VANTAGE 2,1220 S Tryon St,Charlotte,28203,888-758-4389,Public,35.218643,-80.853666,192603
MAST GENERAL STATION 1,3565 NC-194,Sugar Grove,28679,888-758-4389,Public,36.210724,-81.78104,192607
Link Apartments Linden,411 Flemington Rd,Chapel Hill,27517,855-900-7584,Public,35.91463,-79.0255,192649
MIDTOWN DECK STN 3 P2 RIGHT,830 Kenilworth Ave,Charlotte,28204,888-758-4389,Public,35.209957,-80.8384,192670
MIDTOWN DECK STN 5 P4 RIGHT,830 Kenilworth Ave,Charlotte,28204,888-758-4389,Public,35.209854,-80.83841,192671
MIDTOWN DECK STN 7 P5 RIGHT,830 Kenilworth Ave,Charlotte,28204,888-758-4389,Public,35.2099,-80.8383,192672
MIDTOWN DECK STN 4 P2 LEFT,830 Kenilworth Ave,Charlotte,28204,888-758-4389,Public,35.210022,-80.838425,192673
MIDTOWN DECK P1 RIGHT,830 Kenilworth Ave,Charlotte,28204,888-758-4389,Public,35.209976,-80.83847,192674
MIDTOWN DECK STN 2 P1 LEFT,830 Kenilworth Ave,Charlotte,28204,888-758-4389,Public,35.20991,-80.838356,192675
PUBLIC STATIONS OVERFLOW 1,599 Ferncliff Park Dr,Fletcher,28732,888-758-4389,Public,35.432646,-82.550668,192680
PUBLIC STATIONS OVERFLOW 2,515 Ferncliff Park Dr,Fletcher,28732,888-758-4389,Public,35.432579,-82.550571,192684
MIDTOWN DECK STN 6 P4 LEFT,830 Kenilworth Ave,Charlotte,28204,888-758-4389,Public,35.209938,-80.83832,192805
MIDTOWN DECK STN 8 P5 LEFT,830 Kenilworth Ave,Charlotte,28204,888-758-4389,Public,35.209915,-80.83828,192806
Crescent Ford,100 Old Winston Road,High Point,27265,888-998-2546,Public,35.98761,-80.023963,192960
BULLHOUSE APTS2 STATION 2,504 E Pettigrew Street,Durham,27701,888-758-4389,Public,35.989685,-78.899124,192968
"CHARLOTTE, NC FS 43-EV 1",421 Clanton Rd,Charlotte,28217,888-758-4389,Public,35.195985,-80.878473,193055
Rudy's Performance Parts,7422 Whitsett Park Rd.,Burlington,27215,888-998-2546,Public,36.063476,-79.542198,193097
"CHARLOTTE, NC CMPD SOUTH EV-1",11217 Providence Rd W,Charlotte,28277,888-758-4389,Public,35.041507,-80.849002,193103
"BCH, LLC CHECKERS 3881",2520 Fayetteville St,Durham,27707,888-758-4389,Public,35.968565,-78.903208,193115
SKYNET WALL STREET,43 Wall St,Asheville,28801,888-758-4389,Public,35.594764,-82.556287,193203
FRONT LOT AVL ELEMENT AVL,62 College Pl,Asheville,28801,888-758-4389,Public,35.599739,-82.541991,193500
TOWNOFCRAMERTON TOWN HALL,155 N Main Street,Cramerton,28032,888-758-4389,Public,35.23551,-81.071129,193558
HIGH POINT ELEC BLAIR PARK,1901 S Main St,High Point,27260,888-758-4389,Public,35.937786,-79.99384,193839
HIGH POINT ELEC OAK HOLLOW GOLF,3400 N Centennial St,High Point,27265,888-758-4389,Public,36.01077,-79.99881,193857
SREMC DIRTY WHISKEY,5431 Corporation Dr,Hope Mills,28348,888-758-4389,Public,34.940502,-78.912476,193913
TOSS EVS SOUTHERN SHORES,5377 N Virginia Dare Trail,Kitty Hawk,27949,888-758-4389,Public,36.100533,-75.71543,193921
ASHEBORO CITY CITY HALL NORTH,146 N Church St,Asheboro,27203,888-758-4389,Public,35.706825,-79.815865,194166
ASHEBORO CITY CITY HALL SOUTH,146 N Church St,Asheboro,27203,888-758-4389,Public,35.70664,-79.81583,194167
REVUP1 ROBBINS OFFICE,201 S Middleton St,Robbins,27325,888-758-4389,Public,35.433191,-79.588067,194223
HARRISBURG NC HARRISBURG PARK,191 Sims Pkwy,Harrisburg,28075,888-758-4389,Public,35.316952,-80.656397,194271
MOSAIC at Chatham Park,55 Grant Drive,Pittsboro,27312,888-998-2546,Public,35.751791,-79.165919,194302
LEES-MCRAE COLL LEES MCRAE COLL,191 Main St W,Banner Elk,28604,888-758-4389,Public,36.162674,-81.87334,194630
SPINDALE SPINDALE 01,Steward St,Spindale,28160,888-758-4389,Public,35.35725,-81.930084,194638
YADKINVILLE MAIN ST,236 E Main St,Yadkinville,27055,888-758-4389,Public,36.13434,-80.65678,194682
YADKINVILLE ELM STREET,210 E Elm St,Yadkinville,27055,888-758-4389,Public,36.13362,-80.65815,194683
PM TOWN HALL PM TOWN HALL,124 W Main St,Pilot Mountain,27041,888-758-4389,Public,36.38547,-80.46821,194785
BoA Plaza,101 South Tryon Street,Charlotte,28280,800-663-5633,Public,35.22666,-80.843191,195220
CBRE @ Microsoft station location,1009 Think Place,Morrisville,27560,800-663-5633,Public,35.858262,-78.837317,195402
Purfoy Charger 1,7925 Purfoy Rd,Fuquay Varina,27526,800-663-5633,Public,35.581498,-78.770625,195620
Smithfield's Chicken 'N Bar-B-Q - Tesla Supercharger,2507 Doctor Martin Luther King Junior Boulevard,New Bern,28562,877-798-3752,Public,35.10414,-77.080425,195778
Smithfield's Chicken 'N Bar-B-Q - Tesla Supercharger,5180 NC-42,Garner,27529,877-798-3752,Public,35.608412,-78.563071,195780
Sojourn Lake Boone - Building 2,2231 Housecreek Trail,Raleigh,27607,888-998-2546,Public,35.810668,-78.692517,195865
ESP STATION RESIDENT #3,4425 Sharon Rd,Charlotte,28211,888-758-4389,Public,35.151894,-80.82728,196051
WB OFFICE 1 BERRY PATCH L2,351 Cargo Road,Ellerbe,28338,888-758-4389,Public,35.041393,-79.76657,196068
FBEMC BURNSVILLE EV1,204 East-West Blvd,Burnsville,28714,888-758-4389,Public,35.916629,-82.302319,196069
BIRD PARK 1 SYLVAN HEIGHTS1,500 Sylvan Heights Park Way,Scotland Neck,27874,888-758-4389,Public,36.145405,-77.413734,196139
FOUR COUNTY EMC ROSE HILL PUBLI,686 W Charity Rd,Rose Hill,28458,888-758-4389,Public,34.821358,-78.013145,196141
FOUR COUNTY EMC BURGAW PUBLIC,1822 NC-53 West,Burgaw,28425,888-758-4389,Public,34.545464,-77.95397,196143
FOUR COUNTY EMC ELIZABETHTOWN,2668 NC-242,Elizabethtown,28337,888-758-4389,Public,34.601543,-78.62797,196144
"Springhill Suites City View, Durham, North Carolina",705 South Mangum Street,Durham,27701,800-663-5633,Public,35.988532,-78.903278,196157
CITY OF WILSON CENTER BRICK,207 Tarboro St W,Wilson,27893,888-758-4389,Public,35.724429,-77.912708,196158
Smithfield's Chicken N Bar-B-Q - Tesla Supercharger,2669 NC-24,Warsaw,28398,877-798-3752,Public,34.992684,-78.135542,196256
East Asheville Public Library,902 Tunnel Rd,Asheville,28805,828-250-4738,Public - Credit card at all times,35.58808686,-82.50278296,196271
Glo Best Western Asheville,509 Tunnel Rd,Asheville,28805,828-417-9300,Public - Credit card at all times,35.58635548,-82.51490491,196272
Tru By Hilton,1500 Tunnel Rd,Asheville,28805,828-417-9700,Public - Credit card at all times,35.58568225,-82.46112735,196273
Holiday Inn Asheville East,1450 Tunnel Rd,Asheville,28805,828-298-5611,Public - Credit card at all times,35.58549083,-82.46267499,196274
Oasis - Tesla Supercharger,10401 NC-903,Halifax,27839,877-798-3752,Public,36.366073,-77.674312,196521
CITY OF WILSON BRICK STATION 2,207 Tarboro St W,Wilson,27893,888-758-4389,Public,35.72444,-77.91268,196583
UPC NESBIT PARK,1304 H C Nesbit Park Rd,Waxhaw,28173,888-758-4389,Public,34.941964,-80.776365,196592
NPS SERO: GRSM Oconaluftee,60 Enloe Floyd Bottoms Rd,Cherokee,28719,,Private - Government only,35.477057,-83.320586,196899
Oconaluftee JCC,502 Oconaluftee Job Corps Center Access Rd,Cherokee,28719,,Private - Government only,35.522,-83.3058,196900
Lyndon B. Johnson CCC,,Franklin,28734,,Private - Government only,35.182317,-83.381543,196901
Schenck JCC,,Pisgah Forest,28768,,Private - Government only,35.253333,-82.683589,196902
SUGAR SKI & CC -OWNER & RENTER,100 Sugar Ski Dr,Sugar Mountain,28604,888-758-4389,Public,36.123238,-81.87229,197107
CARY ACADEMY STATION 1,1500 N Harrison Ave,Cary,27513,888-758-4389,Public,35.819369,-78.769618,197137
CARY ACADEMY STATION 2,1500 N Harrison Ave,Cary,27513,888-758-4389,Public,35.819353,-78.769492,197138
HALIFAX EMC LG PIT STOP,2458 Eaton Ferry Rd,Littleton,27850,888-758-4389,Public,36.532204,-77.9381,197215
FBEMC MARS HILL EV1,56 S Main St,Mars Hill,28754,888-758-4389,Public,35.825995,-82.549068,197404
Hampton Inn & Suites,1032 Hampton Inn Way,Jacksonville,28546,,Public - Credit card at all times,34.78914121,-77.40590687,197534
Saunders Street Parking,112 Saunders St,Apex,27502,,Public - Credit card at all times,35.73238466,-78.85160787,197540
Carolina Square Parking Deck,121 W Franklin St,Chapel Hill,27516,,Public - Credit card at all times,35.91212491,-79.05706115,197541
REVUP5 PORT78,4401 Zoo Parkway,Asheboro,27205,888-758-4389,Public,35.630562,-79.765662,197618
REVUP5 PORT910,4401 Zoo Parkway,Asheboro,27205,888-758-4389,Public,35.63053,-79.76564,197619
RED BEAR STATION 1,113 Craven Street,New Bern,28560,888-758-4389,Public,35.103934,-77.039269,197707
RED BEAR STATION 2,113 Craven Street,New Bern,28560,888-758-4389,Public,35.103929,-77.03921,197708
LANTOWER WAVERL SW EV1,11809 Providence Rd,Charlotte,28277,888-758-4389,Public,35.041662,-80.855467,197885
PIEDMONT EMC CARRBORO PLAZA,104 NC 54 Hwy,Carrboro,27501,888-758-4389,Public,35.917219,-79.095546,197954
Biltmore Park Town Square - Tesla Supercharger,264 Thetford Street,Asheville,28803,877-798-3752,Public,35.483965,-82.557767,198003
TOM STATION 1 TOM STATION 1,119 N Elm St,Marshville,28103,888-758-4389,Public,34.986668,-80.368298,198134
WAKE FOREST GULLEY DR.,Gulley Dr,Winston-Salem,27109,888-758-4389,Public,36.132088,-80.276602,199125
WAKE FOREST W1 PARKING LOT,1834 Wake Forest Rd,Winston-Salem,27106,888-758-4389,Public,36.136572,-80.275682,199127
WAKE FOREST UCC PARKING LOT,354-444 W 32nd St,Winston-Salem,27105,888-758-4389,Public,36.131963,-80.257653,199128
WAKE FOREST U2 PARKING,1834 Wake Forest Rd,Winston-Salem,27106,888-758-4389,Public,36.135397,-80.273237,199131
REVUP5 PORT3,3733 Zoo Pkwy,Asheboro,27205,888-758-4389,Public,35.667584,-79.796589,199175
"CHARLOTTE, NC CMGC PRKG L1-2",232 S Davidson St,Charlotte,28202,888-758-4389,Public,35.222049,-80.839916,199471
MB CARY PARKING LOT 1,2400 Autopark Blvd,Apex,27502,888-758-4389,Public,35.73733,-78.81497,199490
H&V19197843967 HOLLY SPRINGS 2,781 Avent Ferry Rd,Holly Springs,27540,888-758-4389,Public,35.64296,-78.83707,200422
H&V19197843967 UNC HOLLY SPR 1,709 Avent Ferry Rd,Holly Springs,27540,888-758-4389,Public,35.6432,-78.836945,200423
KMNB KIA OF NEW BERN,1715A US-70 E,New Bern,28560,888-758-4389,Public,35.068051,-77.024846,200424
CITY OF SHELBY STATION 1,118 Campbell St,Shelby,28150,888-758-4389,Public,35.292686,-81.54134,200499
CITY OF SHELBY STATION 2,311 S Lafayette St,Shelby,28150,888-758-4389,Public,35.288837,-81.54018,200508
Hyatt House Charlotte / Rea Farms,9930 Sandy Rock Pl,Charlotte,28277,,Public - Credit card at all times,35.050781,-80.774517,200623
Courtyard by Marriott,6319 Providence Farm Ln,Charlotte,28277,,Public - Credit card at all times,35.056463,-80.768243,200624
NHPMC Travis Avenue,220 Travis Avenue,Charlotte,28204,800-663-5633,Public,35.213952,-80.826316,200875
CARY TMSA CARY 01,312 Gregson Dr,Cary,27511,888-758-4389,Public,35.733006,-78.8058,200916
JACKSONVILLEKIA GUEST STATION,500 Fairway Rd,Jacksonville,28546,888-758-4389,Public,34.785943,-77.385671,200946
EV CHARGE STAT EDGERTON PARK,108 Edgerton St,Louisburg,27549,888-758-4389,Public,36.092626,-78.304879,200984
EV CHARGE STAT DEPOT HILL,444 S Main St,Louisburg,27549,888-758-4389,Public,36.095896,-78.302605,200989
EV CHARGE STAT N MAIN ST LOT,116 N Main St,Louisburg,27549,888-758-4389,Public,36.09925,-78.29997,200990
PIEDMONT EMC ARBY'S 1,1314 Mebane Oaks Rd,Mebane,27302,888-758-4389,Public,36.068138,-79.270321,201000
PIEDMONT TRIAD DC250 1,824 N Main St,Graham,27253,888-758-4389,Public,36.056667,-79.399134,201065
TOWNCHAPELHILL1 TOWN HALL - EMP,North Columbia Street at Town Hall,Chapel Hill,27516,888-758-4389,Public,35.9166,-79.057755,201174
TOWNCHAPELHILL1 TOWN HALL - PUB,North Columbia Street at Town Hall,Chapel Hill,27516,888-758-4389,Public,35.91652,-79.05772,201175
LKG COFFEE STATION 1,128 Lynwood Rd,Littleton,27850,888-758-4389,Public,36.531056,-77.942022,201243
MCH EV STATIONS EV MOSES CONE 1,3518 Drawbridge Pkwy,Greensboro,27410,888-758-4389,Public,36.139553,-79.866325,201557
Lowes Foods - Tesla Supercharger,125 Center Square Drive,Mooresville,28117,877-798-3752,Public,35.587413,-80.873024,201672
Stuckey's - Tesla Supercharger,121 Parker Padgett Road,Old Fort,28762,877-798-3752,Public,35.638195,-82.143094,201676
BEMC OAK ISLAND,182 SE 46th St,Oak Island,28465,888-758-4389,Public,33.912598,-78.11666,201759
UNION COUNTY KI UCK CHARGER 3,4712 W Hwy 74,Monroe,28110,888-758-4389,Public,35.049035,-80.614709,202147
UNION COUNTY KI UCK CHARGER 2,4712 W Hwy 74,Monroe,28110,888-758-4389,Public,35.048983,-80.615031,202148
UNION COUNTY KI UCK CHARGER 1,4712 W Hwy 74,Monroe,28110,888-758-4389,Public,35.049044,-80.614913,202149
Richmond Plaza - Tesla Supercharger,1305 East Broad Avenue,Rockingham,28379,877-798-3752,Public,34.921951,-79.748607,202619
CITY OF WILSON CHICFILA2DCFAST,5100 Raleigh Rd Pkwy W,Wilson,27896,888-758-4389,Public,35.764437,-78.010021,202800
CITY OF WILSON CHICFILA1DCFAST,5100 Raleigh Rd Pkwy W,Wilson,27896,888-758-4389,Public,35.764424,-78.010024,202801
Vidant Beau Hospital,628 East 12th Street,Washington,27889,800-663-5633,Public,35.549171,-77.037805,202940
GASTONIA SCHIELE MUSEUM,1500 E Garrison Blvd,Gastonia,28054,888-758-4389,Public,35.254069,-81.158079,203065
Solice Southline,2520 South Blvd,Charlotte,28203,888-998-2546,Public,35.203424,-80.865496,203326
FBEMC BAKERSVILLE EV1,113 N Mitchell Ave,Bakersville,28705,888-758-4389,Public,36.016382,-82.156851,203361
"CHARLOTTE, NC CMPD UC EV-1",8452 N Tryon St,Charlotte,28262,888-758-4389,Public,35.303096,-80.750599,204300
"CHARLOTTE, NC CATS I-485 3",9512 South Blvd,Charlotte,28273,888-758-4389,Public,35.107009,-80.883292,204393
"CHARLOTTE, NC WESTOVER CMPD 3",2550 West Blvd,Charlotte,28208,888-758-4389,Public,35.210889,-80.905224,204395
Bill Clough Ford,227 US-13,Windsor,27983,888-998-2546,Public,36.001416,-76.962169,204736
LKG Coffee,104 Wellington Way,Littleton,27850,252-629-2221,Public,36.53085486,-77.94200313,204793
MB RALEIGH STATIONABB,5607 Capital Blvd,Raleigh,27616,888-758-4389,Public,35.863763,-78.582846,204934
TFV TAFT FAMILY,225 W 8th St,Greenville,27834,888-758-4389,Public,35.609077,-77.375305,204971
TFV AMANTE TACOS,639 Dickinson Ave Amante Tacos & Spirits,Greenville,27834,888-758-4389,Public,35.609232,-77.375361,204972
UNC BUSINESS SCHOOL,300 Kenan Center Dr,Chapel Hill,27514,888-758-4389,Public,35.90057,-79.046094,205060
UNC COBB DECK,Paul Green Dr,Chapel Hill,27514,888-758-4389,Public,35.911594,-79.045098,205061
GREENSBORO TRIAD ELM,512 Industrial Ave,Greensboro,27406,888-758-4389,Public,36.026863,-79.77735,205119
TELCO CCU CT4000 GW1,1137 Smokey Park Hwy,Candler,28715,888-758-4389,Public,35.545967,-82.66666,205384
RAYLEN ONE STATION 1,322 Brix Ln,Mocksville,27028,888-758-4389,Public,35.971664,-80.50612,205415
WHOLE FOODS MKT WFM WOL CARCH,3804 Oleander Dr,Wilmington,28403,888-758-4389,Public,34.214035,-77.901235,205442
ECU MAIN LSB 1,101 E 10th St,Greenville,27858,888-758-4389,Public,35.606228,-77.373706,205662
ECU MAIN LSB 2,101 E 10th St,Greenville,27858,888-758-4389,Public,35.606213,-77.373694,205663
ECU MAIN LSB 3,101 E 10th St,Greenville,27858,888-758-4389,Public,35.606195,-77.373726,205664
Align Technology,3030 Slater Road,Morrisville,27560,855-900-7584,Public,35.868473,-78.827735,205717
Watauga Medical Center,336 Deerfield Road,Boone,28607,800-663-5633,Public,36.1983,-81.651281,205901
HAYWOOD EMC STATION1,5083 Jonathan Creek Rd,Waynesville,28785,888-758-4389,Public,35.593159,-83.008739,205943
Sojourn Glenwood Place,"3710 Exchange Glenwood Place
Ste.1000
Raleigh NC 27612",Raleigh,27612,800-663-5633,Public,35.832426,-78.664904,206011
KIA 1 STATION 1,2445 N Main St,High Point,27262,888-758-4389,Public,35.988929,-80.027595,206019
PPS TRUIST CENTER 1,214 N Tryon St,Charlotte,28202,888-758-4389,Public,35.227565,-80.840692,206033
PPS TRUIST CENTER 4,214 N Tryon St,Charlotte,28202,888-758-4389,Public,35.227639,-80.840632,206034
PPS TRUIST CENTER 3,214 N Tryon St,Charlotte,28202,888-758-4389,Public,35.227711,-80.840749,206036
"CHARLOTTE, NC CHARLOTTE H20-1",4222 Westmont Dr,Charlotte,28217,888-758-4389,Public,35.190522,-80.904539,206131
"CHARLOTTE, NC CHLT WATER 2",5100 NC-16,Charlotte,28216,888-758-4389,Public,35.276605,-80.889277,206138
"CHARLOTTE, NC CHLT WATER 1",5100 NC-16,Charlotte,28216,888-758-4389,Public,35.27662,-80.889305,206139
LOCAL MARKET #204,5083 Jonathan Creek Rd,Waynesville,28785,888-758-4389,Public,35.593633,-83.008876,206155
URBAN PLACE URBAN PLACE,400 E Chatham St,Cary,27511,888-758-4389,Public,35.788277,-78.773542,206303
TOC EV STATIONS MLKPARK,1120 Hillsborough Rd,Chapel Hill,27516,888-758-4389,Public,35.92584,-79.090709,206751
ROANOKE EMC RICH SQUARE 1,146 N Main St,Rich Square,27869,888-758-4389,Public,36.28022,-77.28026,206844
CITY OF WILM MARKET ST. GAR2,115 Market St,Wilmington,28401,888-758-4389,Public,34.235911,-77.94795,206850
CITY OF WILM MARKET ST GAR1,115 Market St,Wilmington,28401,888-758-4389,Public,34.23589,-77.94792,206851
TOC EV STATIONS 604ROSEMARYPARK,604 W Rosemary St,Carrboro,27510,888-758-4389,Public,35.91117,-79.066019,206923
GASTONIA MAIN-TM LOFTS,612 W Main Ave,Gastonia,28052,888-758-4389,Public,35.263595,-81.192152,207163
KIA OF CONCORD DUAL PORT KIA 2,7550 Hendrick Auto Plaza NW,Concord,28027,888-758-4389,Public,35.361895,-80.701846,207512
Smithfield's Chicken 'N Bar-B-Q - Tesla Supercharger,2020 Olde Regent Way,Leland,28451,877-798-3752,Public,34.217293,-78.018642,207550
CITY OF DURHAM MERRICK-MOORE2,632 N Hoover Rd,Durham,27703,888-758-4389,Public,36.002606,-78.859084,207649
CITY OF DURHAM MERRICK-MOORE1,632 N Hoover Rd,Durham,27703,888-758-4389,Public,36.002589,-78.859063,207657
Bainbridge NoDa,2509 North Davidson Street,Charlotte,28205,800-663-5633,Public,35.243042,-80.811936,207772
TO MORRISVILLE STATION1,1301 Morrisville Pkwy,Morrisville,27560,888-758-4389,Public,35.80957,-78.840805,207949
DOWNTOWN CHAMBER OF COMM,941 Randolph Street Thomasville Chamber of Co,Thomasville,27360,888-758-4389,Public,35.868884,-80.073195,211727
DOWNTOWN VISITOR CENTER,44 W Main St Tourism/Visitor Ctr,Thomasville,27360,888-758-4389,Public,35.882305,-80.083505,211729
FUTHOLDINGSLLC STATION 1,108 N Church St,Jackson,27845,888-758-4389,Public,36.390364,-77.421398,212048
Montgomery Ford,214 South Main Street,Troy,27371,888-998-2546,Public,35.357034,-79.893754,212194
LENOIR CHARGE LENOIR CHARGE 1,107 Boundary St SW,Lenoir,28645,888-758-4389,Public,35.912912,-81.540631,213039
KIA OF CONCORD DUAL PORT KIA 1,7550 Hendrick Auto Plaza NW,Concord,28027,888-758-4389,Public,35.361897,-80.701819,213050
KIA OF CONCORD SERVICE STATION,7550 Hendrick Auto Plaza NW,Concord,28027,888-758-4389,Public,35.361802,-80.701846,213051
PAMAKA GOLD DISTRICT,1400 S Church Street,Charlotte,28203,888-758-4389,Public,35.219322,-80.858,213062
The Elliott Apartment Homes,4600 MBA Court,Concord,28027,800-663-5633,Public,35.44253,-80.65764,213171
UCF ON BRIDGES UCF,2900 Bridges St,Morehead City,28557,888-758-4389,Public,34.727238,-76.74211,213489
CHATHAM CO CHATHAM AG C. 1,1192 US-64 BUS,Pittsboro,27312,888-758-4389,Public,35.723721,-79.197769,213499
The Newton Apartments,15934 White St,Charlotte,28278,888-998-2546,Public,35.092055,-81.031375,213514
City of Kannapolis - City Hall,401 Laureate Way,Kannapolis,28081,855-900-7584,Public,35.50063,-80.62816,213569
DILLON WEST ST 1,120 S West St,Raleigh,27603,888-758-4389,Public,35.778989,-78.646523,213672
DILLON WEST ST 2,120 S West St,Raleigh,27603,888-758-4389,Public,35.778965,-78.646483,213673
KNIER PROPERTIE MACGREGOR MPG,114 Edinburgh S Dr,Cary,27511,888-758-4389,Public,35.739132,-78.80107,213787
GRUBB GWENDOLYN EVSE,101 Glen Lennox drive,Chapel Hill,27517,888-758-4389,Public,35.913227,-79.025081,213877
THE PIEDMONT BLDG 7,6200 Piedmont Ridge Circle,Raleigh,27616,888-758-4389,Public,35.86823,-78.569286,213878
CHATHAM CO SMITHFIELD 1,375 Walmart Supercenter,Siler City,27344,888-758-4389,Public,35.73435,-79.42796,213903
Sheetz - Tesla Supercharger,1551 Glenn Center Drive,Kernersville,27284,877-798-3752,Public,36.069806,-80.111938,214072
Shoppes at Oxford - Tesla Supercharger,1011 Lewis Street,Oxford,27565,877-798-3752,Public,36.28107202,-78.6033953,214083
STATION1 LKG S2 L3,615 Greenville Boulevard Southwest,Greenville,27834,888-758-4389,Public,35.571211,-77.397995,214275
Sanctuary at Powell Place Apartments Location 1,145 Retreat Drive,Pittsboro,27312,888-998-2546,Public,35.749535,-79.173401,214286
Sanctuary at Powell Place Apartments Location 2,145 Retreat Drive,Pittsboro,27312,888-998-2546,Public,35.750113,-79.175563,214287
GASTONIA FUSE PARKING,800 W Main Ave,Gastonia,28052,888-758-4389,Public,35.264178,-81.194357,214295
GASTONIA N. TRENTON ST,N Trenton St,Gastonia,28052,888-758-4389,Public,35.263768,-81.192851,214296
GASTONIA MAIN-WHITESIDE,517 W Main Ave,Gastonia,28052,888-758-4389,Public,35.263694,-81.190555,214297
LAND ROVER ASHE DUAL CHARGER,46 Skyland Inn Dr,Arden,28704,888-758-4389,Public,35.480373,-82.5532,214877
LAND ROVER ASHE DC WALLBOX 1,46 Skyland Inn Drive,Arden,28704,888-758-4389,Public,35.481306,-82.553165,214880
Twiddy and Co Realtors - Corolla,1142 Ocean Trail,Corolla,27927,855-900-7584,Public,36.37913,-75.83083,214916
H WATERSTONE RESIDENTS ONLY,115 W Waterlynn Rd,Mooresville,28117,888-758-4389,Public,35.561108,-80.85287,214937
HALL HYUNDAI EC STATION 2,1306 N Road St,Elizabeth City,27909,888-758-4389,Public,36.32922,-76.224292,216460
IPC-2,5301 Mc Connell Rd.,Whitsett,27377,800-663-5633,Public,36.045727,-79.610107,216565
DAVIS EV - CHARGING 1,410 Keating St,Morrisville,27560,888-758-4389,Public,35.878382,-78.8549,216581
DAVIS EV - CHARGING 2,410 Keating St,Morrisville,27560,888-758-4389,Public,35.878396,-78.854831,216582
LEE HYUNDAI CPE25O DC1,1960 Skibo Rd,Fayetteville,28314,888-758-4389,Public,35.062663,-78.969429,217231
CITY OF WILM 2ND ST PRK DECK,114 N 2nd St,Wilmington,28401,888-758-4389,Public,34.236956,-77.947023,217318
Pinehurst Resort Parking Lot,80 Carolina Vista Dr,Pinehurst,28374,910-295-6811,Public - Credit card at all times,35.19458326,-79.47336165,218047
Pinehurst Country Club,1 Carolina Vista Dr,Pinehurst,28374,910-235-8100,Public - Credit card at all times,35.19014921,-79.46844627,218048
Hampton Inn - Tesla Supercharger,100 Water Place Landing,Benson,27504,877-798-3752,Public,35.374193,-78.542405,218067
The Easley,109 N Green St,Winston-Salem,27101,888-998-2546,Public,36.094856,-80.254402,219736
CITY OF WILSON PARKING DECK #5,212 Broad St W,Wilson,27893,888-758-4389,Public,35.727165,-77.914024,219768
CITY OF WILSON PARKING DECK #4,212 Broad St W,Wilson,27893,888-758-4389,Public,35.727178,-77.914029,219769
CITY OF WILSON PARKING DECK #2,212 Broad St W,Wilson,27893,888-758-4389,Public,35.727165,-77.914012,219775
CITY OF WILSON PARKING DECK #1,212 Broad St W,Wilson,27893,888-758-4389,Public,35.727157,-77.914035,219776
CITY OF WILSON PARKING DECK #3,212 Broad St W,Wilson,27893,888-758-4389,Public,35.727165,-77.914001,219777
CITY OF WILSON PARKING DECK #6,212 Broad St W,Wilson,27893,888-758-4389,Public,35.727172,-77.914014,219778
Retreat at Arden Farms,10 Arden Farms Lane,Arden,28704,888-998-2546,Public,35.474776,-82.565346,220287
Orange County North Campus - Detention Center,1200 US Highway 70,Hillsborough,27278,919-245-2626,Public,36.083745,-79.124229,220373
Orange County North Campus - Bonnie B. Davis Center,1020 US Highway 70,Hillsborough,27278,919-245-2626,Public,36.08469,-79.12306,220374
LOWE'S TECH HUB LEVEL 4 - #5,100 W Worthington Ave,Charlotte,28203,888-758-4389,Public,35.211946,-80.859883,220432
LOWE'S TECH HUB LEVEL 4 - #4,100 W Worthington Ave,Charlotte,28203,888-758-4389,Public,35.211929,-80.859808,220434
LOWE'S TECH HUB LEVEL 3 #2,100 W Worthington Ave,Charlotte,28203,888-758-4389,Public,35.211946,-80.859861,220435
LOWE'S TECH HUB LEVEL 4 - #10,100 W Worthington Ave,Charlotte,28203,888-758-4389,Public,35.211885,-80.859657,220437
LOWE'S TECH HUB LEVEL 4 #3,100 W Worthington Ave,Charlotte,28203,888-758-4389,Public,35.211946,-80.85984,220439
LOWE'S TECH HUB LEVEL 4 - #7,100 W Worthington Ave,Charlotte,28203,888-758-4389,Public,35.21199,-80.859754,220440
LOWE'S TECH HUB LEVEL 4 - #8,100 W Worthington Ave,Charlotte,28203,888-758-4389,Public,35.211999,-80.859968,220441
WAKE EMC ROLESVILLE TH,502 Southtown Cir,Rolesville,27571,888-758-4389,Public,35.915461,-78.471389,220486
WAKE EMC TRI AIRPORT,440 Airport Rd,Louisburg,27549,888-758-4389,Public,36.025832,-78.331871,220487
WAKE EMC SUGAR GAP,916 Sugar Gap Road,Wake Forest,27587,888-758-4389,Public,35.947437,-78.504162,220491
Cary NC 121 Edinburgh S Dr,121 Edinburgh S Dr,Cary,27511,855-900-7584,Public,35.739228,-78.802645,220521
Sheetz - Tesla Supercharger,701 Moye Boulevard,Greenville,27834,877-798-3752,Public,35.605201,-77.400015,220688
CARILLON EV STATION 2,227 W Trade St,Charlotte,28202,888-758-4389,Public,35.227937,-80.845304,221004
CARILLON EV STATION 3,227 W Trade St,Charlotte,28202,888-758-4389,Public,35.22847,-80.845634,221005
Conrad at Concord Mills,9015 King's Grant Drive,Charlotte,28262,800-663-5633,Public,35.368538,-80.732182,221174
CARILLON EV STATION 1,227 W Trade St,Charlotte,28202,888-758-4389,Public,35.228394,-80.84563,221253
Triangle Stop Saluda,1484 Ozone Dr,Saluda,28773,855-900-7584,Public - Credit card at all times,35.246826,-82.329465,221320
VINE KANE 1,4204 Six Forks Rd,Raleigh,27609,888-758-4389,Public,35.836163,-78.639445,221433
FSVCHRGS FSVCHRGS,1243 Tonewood St,Statesville,28677,888-758-4389,Public,35.810867,-80.877607,221503
CLT AIRPORT BUS VALET 04,5601 Wilkinson Blvd,Charlotte,28208,888-758-4389,Public,35.232796,-80.935759,221898
Exchange at Holly Springs,1101 Club Exchange Dr,Holly Springs,27540,888-998-2546,Public,35.632,-78.8337,222151
KIA 1 KIAFAST,2445 N Main St,High Point,27262,888-758-4389,Public,35.988957,-80.027442,222211
Overlook Office Building,13146 Ballantyne Corporate Place,Charlotte,28277,866-816-7584,Public,35.057799,-80.843583,222826
TOWN CREEK PARKING LOT #1,114 Town Creek Drive,Beaufort,28516,888-758-4389,Public,34.726559,-76.662644,222861
CROSSPOINTE II STATION1,2840 Plaza Pl,Raleigh,27612,888-758-4389,Public,35.857493,-78.683177,222883
The Avenue,2601 Noblewood Circle,Raleigh,27604,888-998-2546,Public,35.816201,-78.611464,223393
Hampton Inn New Bern,200 Hotel Dr.,New Bern,28562,800-663-5633,Public,35.102175,-77.079875,223453
TIMBER CREEK EV STATION 01,1623 Benson Rd,Garner,27529,888-758-4389,Public,35.682323,-78.601301,223573
UNC Asheville P19,1 University Heights,Asheville,28804,,Public,35.61508952,-82.5664312,223685
Bank of America - Private Bank,201 N Tryon St,Charlotte,28202,,Private,35.228308,-80.84196,223741
Bank of America - Private Bank,214 N Tryon St,Charlotte,28202,,Private,35.227733,-80.840587,223742
Bank of America - Private Bank,620 S Tryon St,Charlotte,28202,,Private,35.223681,-80.849682,223743
Sheetz - Tesla Supercharger,1810 Liberty Drive,Thomasville,27360,877-798-3752,Public,35.8561339,-80.0721744,224156
LaQuinta Boone,165 NC Hwy. 105 Ext,Boone,28607,800-663-5633,Public,36.071313,-81.870446,224191
Elevate Haw River Apartments,2310 Vantage Point,Graham,27253,800-663-5633,Public,36.06372,-79.377309,224192
SpringHill Suites,300 Hotel Drive,New Bern,28560,800-663-5633,Public,35.103069,-77.080324,224193
HOME 2 BELMONT,871 Hawley Ave,Belmont,28012,888-758-4389,Public,35.25582,-81.029214,224233
NORTH HILLS NORTH HILLS 1,4290 Six Forks Rd,Raleigh,27609,888-758-4389,Public,35.83785,-78.642006,224401
Sleep Inn Boone,163 North Carolina 105 Extension,Boone,28607,800-663-5633,Public,36.21528,-81.668283,224776
Super 8 Boone,2419 North Carolina 105,Boone,28607,800-663-5633,Public,36.204524,-81.694021,224777
Carraway Village - Tesla Supercharger,100 Village Center Drive,Chapel Hill,27516,877-798-3752,Public,35.970201,-79.063936,224993
Smithfield's Chicken 'N Bar-B-Q - Tesla Supercharger,1105 Gum Branch Road,Jacksonville,28540,877-798-3752,Public,34.776427,-77.414366,224994
Albemarle Police Department,155 W South St,Albemarle,28001,800-663-5633,Public,35.347968,-80.198711,225324
TMSA TRIAD SEC,700 Creek Ridge Rd,Greensboro,27406,888-758-4389,Public,36.030308,-79.808876,225384
Franklin Town Hall,95 E Main St,Franklin,28734,828-524-2516,Public - Credit card at all times,35.183223,-83.379757,225703
Harrison Square - Tesla Supercharger,801 Bass Pro Ln,Cary,27513,877-798-3752,Public,35.831562,-78.769034,225835
Food Lion 2110 Executive Drive South Parking Lot,2110 Executive Drive,Salisbury,28147,888-264-2208,Public,35.68271415,-80.51098712,225851
Candance at Cates Creek,100 Waterstone Park Circle,Hillsborough,27278,800-663-5633,Public,36.046682,-79.093807,225879
Food Lion 2110 Executive Drive North Parking Lot,2110 Executive Drive,Salisbury,28147,888-264-2208,Public,35.68368012,-80.51082046,225922
Kaleido NoDa Apts,2818 Cullman Ave,Charlotte,28206,800-663-5633,Public,35.247755,-80.812691,225933
TOWN HALL CT4000,112 Avent Ferry Rd,Holly Springs,27540,888-758-4389,Public,35.650398,-78.834208,226073
TOWN HALL PARKINGDECK,Town of Holly Springs Parking Deck 242 S. Mai,Holly Springs,27540,888-758-4389,Public,35.649315,-78.83418,226074
TSPF CHARGER SPF 2,6408 Providence Rd,Charlotte,28277,888-758-4389,Public,35.055301,-80.76775,226080
TSPF CHARGER SPF 1,6408 Providence Rd,Charlotte,28277,888-758-4389,Public,35.055283,-80.767696,226081
ASHTONSE CHARGE ASHTONSOUTHEND2,125 W Tremont Ave,Charlotte,28203,888-758-4389,Public,35.20997,-80.861278,226097
ASHTONSE CHARGE ASHTONSOUTHEND1,125 W Tremont Ave,Charlotte,28203,888-758-4389,Public,35.209953,-80.861257,226098
Welford Harris Ford,1701 E 11th St,Siler City,27344,888-998-2546,Public,35.734509,-79.439666,226156
WESTGATEKIA STATION 1,10956 Star Rd,Wake Forest,27587,888-758-4389,Public,35.945528,-78.536713,226812
FOUNDATION HALL FOUNDATION HALL,525 Lindbergh Pl,Pinehurst,28374,888-758-4389,Public,35.222245,-79.405361,226878
Verde Vista Apartments,4110 Verde Vista Cir,Asheville,28803,888-998-2546,Public,35.571988,-82.509256,227114
LEE HYUNDAI CPE250 DC2,1960 Skibo Rd,Fayetteville,28314,888-758-4389,Public,35.062672,-78.969396,227223
FRIENDS HOMES I GUILFORD,925 New Garden Rd,Greensboro,27410,888-758-4389,Public,36.093231,-79.892727,227526
HALL HYUNDAI EC STATION 6,1306 N Road St,Elizabeth City,27909,888-758-4389,Public,36.32884,-76.22437,227533
HALL HYUNDAI EC STATION 5,1306 N Road St,Elizabeth City,27909,888-758-4389,Public,36.328888,-76.22437,227534
RIDGE ROAD UPPER SCHOOL,3509 Ridge Rd,Durham,27705,888-758-4389,Public,35.977074,-78.969315,227537
MAIN STREET COMMONS #1,108 W North St,Wilkesboro,28697,888-758-4389,Public,36.148911,-81.152682,227658
MAIN STREET COMMONS #2,108 W North St,Wilkesboro,28697,888-758-4389,Public,36.148867,-81.152717,227659
CVS - Tesla Supercharger,2147 Blowing Rock Road,Boone,28607,877-798-3752,Public,36.196091,-81.653012,227705
FLOW HYUNDAI CHARGER 4,1015 Folger Dr,Statesville,28625,888-758-4389,Public,35.77691,-80.861855,227917
Carmel Commons,7601 Pineville Matthews Rd,Charlotte,28226,877-455-3833,Public,35.086593,-80.8485414,227990
Lowes Foods - Jamestown,1236 Guilford College Rd,Jamestown,27282,877-455-3833,Public,36.0403147,-79.9211277,227992
AAA,3505 Westgate Dr,Durham,27707,877-455-3833,Public,35.9659,-78.96026,228105
AAA,1480 N New Hope Rd,Raleigh,27604,877-455-3833,Public,35.8002,-78.56228,228106
AAA,11126 Capital Blvd,Wake Forest,27587,877-455-3833,Public,35.95034,-78.53849,228107
Shoppes of Kildaire,1394 Kildaire Farm Rd,Cary,27511,877-455-3833,Public,35.761411,-78.782208,228111
Woodcroft Shopping Center,4711 Hope Valley Rd,Durham,27707,877-455-3833,Public,35.92136,-78.95789,228227
Courtyard Marriot,3908 Arrow Dr,Raleigh,27612,877-455-3833,Public,35.83514,-78.67387,228504
Hyatt Place Durham Southpoint,7840 NC Highway 751,Durham,27713,877-455-3833,Public,35.900384,-78.961132,228506
Hyatt Place Durham Southpoint,7840 NC Highway 751,Durham,27713,877-455-3833,Public,35.90027,-78.96117,228507
Sheetz,4010 CONVENIENCE LN,Cary,27519,877-455-3833,Public,35.860412,-78.89456,228557
Biltmore Park Town Square,1 Town Square Blvd,Asheville,28803,877-455-3833,Public,35.48404,-82.55774,228622
Asheville Outlet Mall,800 Brevard Rd,Asheville,28806,877-455-3833,Public,35.529573,-82.601858,228623
Lowes Foods - Brier Creek,8100 Brier Creek Pkwy,Raleigh,27617,877-455-3833,Public,35.910055,-78.785178,228777
Ridgewood Shopping Center,3540 Wade Ave,Raleigh,27607,877-455-3833,Public,35.8017173,-78.6841435,228802
Food Lion - Tuckaseegee,4709 Tuckaseegee Rd,Charlotte,28208,877-455-3833,Public,35.2459937,-80.9039224,229217
SWC STATION 3&4 RTP 7,Advantage Way,Morrisville,27560,888-758-4389,Public,35.650384,-78.699845,229283
CROWN VOLVO CROWN VOLVO,3607 W Wendover Ave,Greensboro,27407,888-758-4389,Public,36.059387,-79.868225,229428
Modern Ford of Boone,300 New Market Blvd,Boone,28607,888-998-2546,Public,36.220611,-81.663883,229472
DILLON STATION EASTERN 4TH LVL,4200 Six Forks Rd,Raleigh,27609,888-758-4389,Public,35.836024,-78.639451,229479
SAS Building T,701 SAS Campus Drive,Cary,27513,866-816-7584,Public,35.823008,-78.751816,230794
Talbert Public EV Charging Access,128 Overhill Drive,Mooresville,28117,866-816-7584,Public,35.599799,-80.849498,230970
Catawba Village BP,221 Mt Holly-Huntersville Rd,Charlotte,28214,866-816-7584,Public,35.301719,-80.987302,231038
Willow Oaks BP,185 George W. Liles Parkway,Concord,28027,866-816-7584,Public,35.396088,-80.659244,231050
616 PARKING GARAGE,616 Oberlin Rd,Raleigh,27605,888-758-4389,Public,35.793191,-78.661904,231712
Promenade on Providence - Tesla Supercharger,10828 Providence Rd,Charlotte,28277,877-798-3752,Public,35.062319,-80.770893,233039
Heaton Construction Home Office,309 Long Cir,Roanoke Rapids,27870,844-623-1001,Public - Credit card at all times,36.4456,-77.64131,233090
Highland Creek BP,5045 Ridge Road,Charlotte,28269,866-816-7584,Public,35.37231,-80.784327,233339
Earp's #4,10950 Woodland Beaver Road,Charlotte,28215,866-816-7584,Public,35.223859,-80.630242,233340
Plantation Market,3040 Weddington Road,Matthews,28105,866-816-7584,Public,35.083725,-80.732225,233341
Circle K - Tesla Supercharger,110 Graceland Ln,Mt. Airy,27030,877-798-3752,Public - Credit card at all times,36.485545,-80.744773,233388
MWP-EV MWP EV1,4001 Meriwether Dr,Durham,27704,888-758-4389,Public,36.04127,-78.891535,234493
MWP-EV MWP EV2,4001 Meriwether Dr,Durham,27704,888-758-4389,Public,36.041263,-78.891601,234494
MWP-EV MWP EV3,4001 Meriwether Dr,Durham,27704,888-758-4389,Public,36.041229,-78.891537,234495
Marine Chevrolet Cadillac,1408 Western Blvd,Jacksonville,28546,910-455-2121,Private,34.789404,-77.402415,234667
NAM18581 PARKING GARAGE,900 Hobbs Rd,Greensboro,27410,888-758-4389,Public,36.089015,-79.840151,235028
Hampton Inn - Rocky Mount,530 North Winstead Avenue,Rocky Mount,27804,800-663-5633,Public,35.972187,-77.849815,235143
TO MORRISVILLE CSP 2,5817 Cricket Pitch Way,Morrisville,27560,888-758-4389,Public,35.830465,-78.816238,235279
TO MORRISVILLE CSP 1,5817 Cricket Pitch Way,Morrisville,27560,888-758-4389,Public,35.830556,-78.816059,235280
KINSTON HERRITAGERC,117 W Caswell St,Kinston,28501,888-758-4389,Public,35.260424,-77.582734,235282
MODERN TB MODERN TOYOTA,225 Modern Dr,Boone,28607,888-758-4389,Public,36.222831,-81.652405,235620
SHELTON  STATION1,286 Cabernet Lane,Dobson,27017,888-758-4389,Public,36.36385,-80.767596,235622
Tapestry University City Arlington Properties,5340 Periwinkle Hill Ave,Charlotte,28213,800-636-0986,Public,35.28571385,-80.7585406,235718
CNE DECK EV RAZADES 1,Graham St & Keswick Ave,Charlotte,28206,888-758-4389,Public,35.244889,-80.831794,235735
CNE DECK EV RAZAEDES WAY 5,Graham St & Keswick Ave,Charlotte,28206,888-758-4389,Public,35.244828,-80.831783,235736
DUKEPTS BRYAN CENTER 2,Science Drive,Durham,27708,888-758-4389,Public,35.998653,-78.945367,235750
DUKEPTS BRYAN CENTER 1,Science Drive,Durham,27708,888-758-4389,Public,35.998679,-78.945324,235751
West Park Apartments,5600 Fountain Grove Circle,Fayetteville,28304,800-663-5633,Public,35.034141,-79.071699,236087
CAPITALAUTOGSO2 SABURU 1,811 E Bessemer Ave,Greensboro,27405,888-758-4389,Public,36.086967,-79.77738,236107
CAPITALAUTOGSO2 SABURU 3,811 E Bessemer Ave,Greensboro,27405,888-758-4389,Public,36.086784,-79.77739,236108
Link Apartments Montford II,1615 Mockingbird Lane,Charlotte,28209,855-900-7584,Public,35.167288,-80.848515,236166
W King St Parking,680 W King St,Boone,28607,828-268-6200,Public,36.21907,-81.68429,236185
Boone Town Parking,567 W King St,Boone,28607,828-268-6200,Public,36.21767,-81.68326,236186
ADVANCE AUTO STATION 3,4200 Six Forks Rd,Raleigh,27609,888-758-4389,Public,35.836077,-78.639586,236217
ADVANCE AUTO STATION 1,4200 Six Forks Rd,Raleigh,27609,888-758-4389,Public,35.836121,-78.639586,236218
5 Tobacco Barn Rd. (US-F76-77N-1),5 Tobacco Barn Rd.,Maggie Valley,28751,866-576-1495,Public,35.50734,-83.10631,236331
5 Tobacco Barn Rd. (US-F76-77N-2),5 Tobacco Barn Rd.,Maggie Valley,28751,866-576-1495,Public,35.50734,-83.10631,236332
FLOW TOYOTA CT4K,997 Folger Dr,Statesville,28625,888-758-4389,Public,35.780867,-80.862361,236399
MPH CHARGERS STATION 1,5216 East Oak Island Drive,Oak Island,28465,888-758-4389,Public,33.912807,-78.11021,236411
FLOW TOYOTA CPF50,997 Folger Dr,Statesville,28625,888-758-4389,Public,35.781003,-80.861483,236483
WAKE FOREST PARKING LOT Z5,1021 Polo Rd,Winston-Salem,27106,888-758-4389,Public,36.140482,-80.275745,236500
University of North Carolina Charlotte - Union Deck,8755 Student Union Ln,Charlotte,28223,704-687-0161,Public,35.30918,-80.73521,236547
University of North Carolina Charlotte - North Deck,9628 Poplar Ln,Charlotte,28223,704-687-0161,Public,35.31303417,-80.73129482,236548
Hampton Inn - Elizabeth City,402 Halstead Boulevard,Elizabeth City,27909,800-663-5633,Public,36.29439,-76.245875,236714
Holiday Inn Express - Greenville,909 Moye Boulevard,Greenville,27834,800-663-5633,Public,35.602963,-77.398066,236715
WAKE FOREST PARKING LOT Q,1834 Wake Forest Rd.,Winston-Salem,27109,888-758-4389,Public,36.136082,-80.280804,236799
Courtyard Burlington,3141 Wilson Drive,Burlington,27215,800-663-5633,Public,36.068226,-79.501013,236901
FPWC LAKE RIM PARK 1,2214 Tar Kiln Dr Lake Rim Park,Fayetteville,28304,888-758-4389,Public,35.028946,-79.044484,236905
FPWC CLARK PARK 1,Cape Fear River Trail,Fayetteville,28301,888-758-4389,Public,35.087778,-78.870909,236906
WAKE FOREST PARKING LOT A,1760 Wake Forest Rd,Winston-Salem,27109,888-758-4389,Public,36.136408,-80.278083,236932
ECHOTA EV SUMMIT EV 1&2,108 Red Tail Summit,Boone,28607,888-758-4389,Public,36.174147,-81.759414,236988
MPH CHARGERS STATION 2,5216 E Oak Island Dr,Oak Island,28465,888-758-4389,Public,33.912296,-78.11058,236992
ECHOTA EV SUMMIT EV 3&4,108 Red Tail Summit,Boone,28607,888-758-4389,Public,36.174263,-81.75882,237186
Wicked Weed Brewing West,145 Jacob Holm Way,Candler,28715,828-365-7166,Public,35.54519198,-82.64082192,237228
GASTONIA 501 W MAIN AVE,501 W Main Ave,Gastonia,28052,888-758-4389,Public,35.263718,-81.190042,237502
Walmart - Tesla Supercharger,276 Harvey St,Winston-Salem,27103,877-798-3752,Public,36.085664,-80.293363,237627
Lowes Foods - Tesla Supercharger,818 Spring Ln,Sanford,27330,877-798-3752,Public,35.488112,-79.193398,237666
25 CAPITAL STATION 1,8724 Outlets Blvd,Charlotte,28278,888-758-4389,Public,35.169125,-80.97243,237743
Ace/Avant Office,5358 Poole Road,Archdale,27263,800-663-5633,Public,35.876371,-79.902776,237895
NHFMC Parking Deck 2nd floor,3333 Silas Creek Parkway,Winston Salem,27103,800-663-5633,Public,36.076443,-80.296569,238118
BEMC HOLDEN BEACH,101-109 Jordan Blvd,Holden Beach,28462,888-758-4389,Public,33.914347,-78.267314,238294
Shoppes at Garner,4500 Fayetteville Rd,Raleigh,27603,877-455-3833,Public,35.7197275,-78.6577913,240738
RAMADA PLAZA RAMADA PLAZA,1701 S Virginia Dare Trail,Kill Devil Hills,27948,888-758-4389,Public,35.998641,-75.647899,240824
Ingles,706 E. Dixon Blvd,Shelby,28152,,Public,35.27420991,-81.53005254,240903
Ingles,1301 Fallston Rd,Shelby,28150,,Public,35.32002564,-81.51873179,240904
Ingles,346 Airport Road,Arden,28704,,Public,35.44952531,-82.53080019,240905
Ingles,485 Weaverville Road,Asheville,28804,,Public,35.67276913,-82.58134015,240907
Ingles,1869 Hendersonville Hwy,Skyland,28803,,Public,35.50026133,-82.52245931,240908
Ingles,147 Smokey Park Hwy,Asheville,28806,,Public,35.56552496,-82.62940954,240909
CAMP LEJEUNE 676,H M Smith Blvd Bldg FC500,Camp Lejeune,28547,888-758-4389,Public,34.648135,-77.332811,241258
CAMP LEJEUNE 677,1005 Michael Rd Bldg 1005,Camp Lejeune,28547,888-758-4389,Public,34.670707,-77.330274,241261
Maiden Recreation Department,207 E Klutz St,Maiden,28650,828-428-5007,Public,35.57853,-81.20663,250521
540 TECH CENTER 4912 LEFT,4912 Green Rd,Raleigh,27616,888-758-4389,Public,35.853311,-78.585734,250658
540 TECH CENTER 4912 RIGHT,4912 Green Rd,Raleigh,27616,888-758-4389,Public,35.85347,-78.58576,250659
Lowes Foods - Tesla Supercharger,2501 Lewisville Clemmons Rd,Clemmons,27012,877-798-3752,Public - Credit card at all times,36.030526,-80.381435,250738
Smithfield's Chicken 'N Bar-B-Q-Newton Grove - Tesla Destination,1380 Harnett Dunn Hwy,Newton Grove,28366,910-594-0415  877-798-3752,Public,35.249463,-78.379284,250877
Smithfield's Chicken 'N Bar-B-Q-Warsaw - Tesla Destination,2669 NC Hwy 24 W,Warsaw,28398,910-293-2218  877-798-3752,Public,34.992794,-78.135872,250878
Craddock Cottage - Tesla Destination,130 Magnolia Rd,Pinehurst,28374,9103341330  877-798-3752,Public,35.1963753,-79.4696815,250903
Cypress Cottage - Tesla Destination,120  Magnolia Rd,Pinehurst,28374,9103341330  877-798-3752,Public,35.19608,-79.46971,250904
Catalyst Garage - Tesla Destination,415 S Mint Street,Charlotte,28202,7049302900  877-798-3752,Public,35.2267399,-80.8494899,250951
Great Wagon Road Distilling Company - Tesla Destination,610 Anderson St,Charlotte,28205,704-469-9330  877-798-3752,Public,35.24924,-80.79645,250954
Tranquil House Inn - Tesla Destination,405 Queen Elizabeth Avenue,Manteo,27954,2524731404  877-798-3752,Public,35.91047,-75.66941,250970
Lumina at Wrightsville Beach a Holiday Inn Resort - Tesla Destination,1706 N. Lumina Ave.,Wrightsville Beach,28480,9102562231  877-798-3752,Public,34.22031,-77.785436,251024
Inlet Inn - Tesla Destination,601 Front St,Beaufort,28516,252-728-3600  877-798-3752,Public,34.71598,-76.66335,251040
NCMLS North Lot,433 W Murray Ave,Durham,27704,,Private,36.0293105,-78.8992776,251343
Colliers - Five Coliseum Centre,2810 Coliseum Centre Dr,Charlotte,28217,,Private,35.189475,-80.9155216,251390
DIT Western Data Center,1371 Old Caroleen Rd,Forest City,28043,,Private,35.3110602,-81.8250438,251396
High Peaks Wake Forest,1609 Heritage Commerce Court,Wake Forest,27587,,Private,35.9522029,-78.51568705,251545
Cisco,7100-100 Kit Creek Rd,Morrisville,27560,,Private,35.8564977,-78.87656,251684
Mecklenburg County,3205 Freedom Dr,Charlotte,28208,803-371-4893,Public,35.2426308,-80.8943285,251746
SkyHouse - Raleigh,308 S Blount St.,Raleigh,27601,855-900-7584,Public,35.776619,-78.637054,252117
Lintmen's,421 E 26th Street,Charlotte,28205,888-998-2546,Public,35.241801,-80.815019,252132
MB FAYETTEVILLE MERCEDES BENZ,420 Glensford Dr,Fayetteville,28314,888-758-4389,Public,35.060813,-78.964907,252183
Sheetz - Tesla Supercharger,1449 Yadkinville Rd,Mocksville,27028,877-798-3752,Public - Credit card at all times,35.91853229,-80.58570716,252513
Walmart,276 Harvey St,Winston-Salem,27103,877-798-3752,Public - Credit card at all times,36.08577941,-80.29344367,252532
Circle K Southeast Office,2550 W Tyvola Rd,Charlotte,28217,833-505-2291,Public - Credit card at all times,35.18563,-80.91944,252538
TOWNCHAPELHILL1 EUBANKS_PR_LOT,2000 Eubanks Rd,Chapel Hill,27516,888-758-4389,Public,35.970344,-79.071094,252645
Shops at Erwin Mill,737 9th St,Durham,27705,877-455-3833,Public,36.00952,-78.92278,252734
Greystone WW Company,1001 Greystone Common Drive,Knightdale,27545,888-998-2546,Public,35.793596,-78.504985,252797
ChargeUp - Duke Energy Innovation Center,340 E 16th St,Charlotte,28206,800-777-9898,Public - Call ahead,35.2351663,-80.82648049,253269
DURHAM COUNTY QUEEN ST 2W,115 N Queen St,Durham,27701,888-758-4389,Public,35.993,-78.896755,253321
DURHAM COUNTY QUEEN ST 1W,115 N Queen St,Durham,27701,888-758-4389,Public,35.993047,-78.896368,253322
DURHAM COUNTY QUEEN ST 2N,403 E Main St,Durham,27701,888-758-4389,Public,35.992947,-78.896745,253323
Wegmans 11051 Ligon Mill Road DCFC,11051 Ligon Mill Road,Wake Forest,27587,888-264-2208,Public,35.96417439,-78.53310937,253578
TMSA APEX 02,351 New Hill Olive Chapel Rd,Apex,27523,888-758-4389,Public,35.738745,-78.944706,253974
TMSA APEX 01,400 New Hill Olive Chapel Rd,Apex,27502,888-758-4389,Public,35.738711,-78.944708,253975
JOEMC JAX MALL,370 Western Blvd,Jacksonville,28546,888-758-4389,Public,34.764713,-77.382284,254029
JOEMC SURF CITY GOV'T,214 State Hwy 210,Surf City,28445,888-758-4389,Public,34.42848,-77.543048,254030
JOEMC SURF CITY MUNI,214 W Florence Wy,Hampstead,28443,888-758-4389,Public,34.450316,-77.56642,254031
Cloninger Automotive Bodyshop - 645A Julian Rd,645 Julian Rd,Salisbury,28147,866-816-7584,Public,35.643515,-80.495516,254079
Cloninger Ford of Hickory - 1241 US Hwy 70 SE,1241 US Hwy 70 SE,Hickory,28602,866-816-7584,Public,35.71052,-81.313901,254080
Whole Foods Market - Tesla Supercharger,4 S Tunnel Rd,Asheville,28805,877-798-3752,Public - Credit card at all times,35.581912,-82.523642,254095
Autumn Woods Apartments,222 Old Fayetteville Rd,Carrboro,27510,888-998-2546,Public,35.906238,-79.091354,254344
Westchase II,4000 Westchase Boulevard,Raleigh,27607,800-663-5633,Public,35.802526,-78.708155,255178
The Kendall,"1101 Flagstone Lane 
Indian Trail, NC 28079",INDIAN TRAIL,28079,800-663-5633,Public,35.072515,-80.6372,255200
Westchase III,4011 Westchase Boulevard,Raleigh,27607,800-663-5633,Public,35.80133,-78.707968,255208
Retreat at RTP - BLD L (L),1533 Ellis Road,Durham,27703,800-663-5633,Public,35.944427,-78.864494,255217
The Bellamy,10015 Parthenon Court,Charlotte,28262,800-663-5633,Public,35.327724,-80.744119,255226
GARAGE L1 CHURCH ST L1,430 N Church St,Hendersonville,28792,888-758-4389,Public,35.31732,-82.46153,255248
Westchase I,4020 Westchase Boulevard,Raleigh,27607,800-663-5633,Public,35.803187,-78.709702,255274
904 West,904 Gabriel Drive,Greenville,27834,800-663-5633,Public,35.597374,-77.406554,255280
The Murray AL LP,8010 WOODSEDGE DR,CHARLOTTE,28216,800-663-5633,Public,35.34704,-80.864178,255284
WAKECOPUBDECK WAKECOPUBDECK,216 W Cabbarus st,Raleigh,27601,888-758-4389,Public,35.774974,-78.642611,255301
White Ford,175 Old Farm Rd,Roanoke Rapids,27870,252-537-6136,Public - Credit card at all times,36.43801,-77.63438,255348
White CDJR,177 Old Farm Rd,Roanoke Rapids,27870,252-537-6136,Public - Credit card at all times,36.438,-77.63437,255349
Whites Chevy Buick GMC,173 Old Farm Rd,Roanoke Rapids,27870,252-537-6136,Public - Credit card at all times,36.43793,-77.63448,255350
LBJ Chevy,815 E Washington St,Nashville,27856,252-537-6136,Public - Credit card at all times,35.9698,-77.95269,255351
CORNERSTONE APT 2,756 Bailey St,Mars Hill,28754,888-758-4389,Public,35.835298,-82.552301,255584
CORNERSTONE APT 1,756 Bailey St,Mars Hill,28754,888-758-4389,Public,35.835283,-82.552097,255585
Home2 Suites by Hilton Raleigh State Arena,6825 Chapel Hill Road,Raleigh,27607,888-998-2546,Public,35.790407,-78.742767,255612
Shell - Tesla Supercharger,1810 Mt Hope Church Rd,McLeansville,27301,877-798-3752,Public - Credit card at all times,36.056164,-79.660102,256053
Wegmans,1810 Fordham Blvd,Chapel Hill,27514,919-864-7400,Public - Credit card at all times,35.94524865,-79.0091255,256631
NEW HYUNDAI HYUNDAI FRONT,2421 N Main St,High Point,27262,888-758-4389,Public,35.987953,-80.026848,256799
NEW HYUNDAI HYUNDAI SIDE,2421 N Main St,High Point,27262,888-758-4389,Public,35.987909,-80.026741,256800
WNCC CONF CTR RIGHT CHARGER,13930 Professional Center Dr,Huntersville,28078,888-758-4389,Public,35.399301,-80.86711,256969
WNCC CONF CTR LEFT CHARGER,13930 Professional Center Dr,Huntersville,28078,888-758-4389,Public,35.399351,-80.867177,256970
KMNB MAZDA1,1715 Hwy 70E,New Bern,28562,888-758-4389,Public,35.108493,-77.044071,257091
BARBOUR HENDRIC SHOP 02,3300 S Memorial Dr,Greenville,27834,888-758-4389,Public,35.570422,-77.401603,257157
